{
"type": "FeatureCollection",
"name": "synthetic",
"crs": { "type": "name", "properties": { "name": "urn:ogc:def:crs:OGC:1.3:CRS84" } },
"features": [
{ "type": "Feature", "properties": { "zone_id": "750000", "price_m2": 9448.0, "heat_score": 79.9, "flood_score": 4.7, "elevation": 64.2, "dist_seine": 4.14, "n_sales": 292 }, "geometry": { "type": "Polygon", "coordinates": [ [ [ 2.260625, 48.815 ], [ 2.260625, 48.8204375 ], [ 2.25, 48.8204375 ], [ 2.25, 48.815 ], [ 2.260625, 48.815 ] ] ] } },
{ "type": "Feature", "properties": { "zone_id": "750001", "price_m2": 10117.0, "heat_score": 77.2, "flood_score": 5.2, "elevation": 66.7, "dist_seine": 3.53, "n_sales": 318 }, "geometry": { "type": "Polygon", "coordinates": [ [ [ 2.260625, 48.8204375 ], [ 2.260625, 48.825875 ], [ 2.25, 48.825875 ], [ 2.25, 48.8204375 ], [ 2.260625, 48.8204375 ] ] ] } },
{ "type": "Feature", "properties": { "zone_id": "750002", "price_m2": 9445.0, "heat_score": 62.0, "flood_score": 4.4, "elevation": 57.9, "dist_seine": 2.93, "n_sales": 45 }, "geometry": { "type": "Polygon", "coordinates": [ [ [ 2.260625, 48.825875 ], [ 2.260625, 48.8313125 ], [ 2.25, 48.8313125 ], [ 2.25, 48.825875 ], [ 2.260625, 48.825875 ] ] ] } },
{ "type": "Feature", "properties": { "zone_id": "750003", "price_m2": 10809.0, "heat_score": 70.3, "flood_score": 13.6, "elevation": 54.9, "dist_seine": 2.33, "n_sales": 388 }, "geometry": { "type": "Polygon", "coordinates": [ [ [ 2.260625, 48.8313125 ], [ 2.260625, 48.83675 ], [ 2.25, 48.83675 ], [ 2.25, 48.8313125 ], [ 2.260625, 48.8313125 ] ] ] } },
{ "type": "Feature", "properties": { "zone_id": "750004", "price_m2": 10681.0, "heat_score": 56.0, "flood_score": 34.5, "elevation": 52.2, "dist_seine": 1.72, "n_sales": 280 }, "geometry": { "type": "Polygon", "coordinates": [ [ [ 2.260625, 48.83675 ], [ 2.260625, 48.8421875 ], [ 2.25, 48.8421875 ], [ 2.25, 48.83675 ], [ 2.260625, 48.83675 ] ] ] } },
{ "type": "Feature", "properties": { "zone_id": "750005", "price_m2": 11251.0, "heat_score": 54.4, "flood_score": 35.2, "elevation": 44.7, "dist_seine": 1.12, "n_sales": 200 }, "geometry": { "type": "Polygon", "coordinates": [ [ [ 2.260625, 48.8421875 ], [ 2.260625, 48.847625 ], [ 2.25, 48.847625 ], [ 2.25, 48.8421875 ], [ 2.260625, 48.8421875 ] ] ] } },
{ "type": "Feature", "properties": { "zone_id": "750006", "price_m2": 12076.0, "heat_score": 52.6, "flood_score": 66.1, "elevation": 40.0, "dist_seine": 0.52, "n_sales": 199 }, "geometry": { "type": "Polygon", "coordinates": [ [ [ 2.260625, 48.847625 ], [ 2.260625, 48.8530625 ], [ 2.25, 48.8530625 ], [ 2.25, 48.847625 ], [ 2.260625, 48.847625 ] ] ] } },
{ "type": "Feature", "properties": { "zone_id": "750007", "price_m2": 12742.0, "heat_score": 63.7, "flood_score": 91.4, "elevation": 33.1, "dist_seine": 0.09, "n_sales": 287 }, "geometry": { "type": "Polygon", "coordinates": [ [ [ 2.260625, 48.8530625 ], [ 2.260625, 48.8585 ], [ 2.25, 48.8585 ], [ 2.25, 48.8530625 ], [ 2.260625, 48.8530625 ] ] ] } },
{ "type": "Feature", "properties": { "zone_id": "750008", "price_m2": 11919.0, "heat_score": 69.4, "flood_score": 47.8, "elevation": 42.9, "dist_seine": 0.69, "n_sales": 152 }, "geometry": { "type": "Polygon", "coordinates": [ [ [ 2.260625, 48.8585 ], [ 2.260625, 48.8639375 ], [ 2.25, 48.8639375 ], [ 2.25, 48.8585 ], [ 2.260625, 48.8585 ] ] ] } },
{ "type": "Feature", "properties": { "zone_id": "750009", "price_m2": 12199.0, "heat_score": 47.0, "flood_score": 38.3, "elevation": 46.8, "dist_seine": 1.29, "n_sales": 185 }, "geometry": { "type": "Polygon", "coordinates": [ [ [ 2.260625, 48.8639375 ], [ 2.260625, 48.869375 ], [ 2.25, 48.869375 ], [ 2.25, 48.8639375 ], [ 2.260625, 48.8639375 ] ] ] } },
{ "type": "Feature", "properties": { "zone_id": "750010", "price_m2": 11113.0, "heat_score": 71.0, "flood_score": 24.0, "elevation": 51.5, "dist_seine": 1.9, "n_sales": 147 }, "geometry": { "type": "Polygon", "coordinates": [ [ [ 2.260625, 48.869375 ], [ 2.260625, 48.8748125 ], [ 2.25, 48.8748125 ], [ 2.25, 48.869375 ], [ 2.260625, 48.869375 ] ] ] } },
{ "type": "Feature", "properties": { "zone_id": "750011", "price_m2": 11748.0, "heat_score": 73.8, "flood_score": 10.5, "elevation": 56.4, "dist_seine": 2.5, "n_sales": 28 }, "geometry": { "type": "Polygon", "coordinates": [ [ [ 2.260625, 48.8748125 ], [ 2.260625, 48.88025 ], [ 2.25, 48.88025 ], [ 2.25, 48.8748125 ], [ 2.260625, 48.8748125 ] ] ] } },
{ "type": "Feature", "properties": { "zone_id": "750012", "price_m2": 9793.0, "heat_score": 59.5, "flood_score": 10.9, "elevation": 55.5, "dist_seine": 3.1, "n_sales": 148 }, "geometry": { "type": "Polygon", "coordinates": [ [ [ 2.260625, 48.88025 ], [ 2.260625, 48.8856875 ], [ 2.25, 48.8856875 ], [ 2.25, 48.88025 ], [ 2.260625, 48.88025 ] ] ] } },
{ "type": "Feature", "properties": { "zone_id": "750013", "price_m2": 9781.0, "heat_score": 80.0, "flood_score": 6.5, "elevation": 66.9, "dist_seine": 3.71, "n_sales": 385 }, "geometry": { "type": "Polygon", "coordinates": [ [ [ 2.260625, 48.8856875 ], [ 2.260625, 48.891125 ], [ 2.25, 48.891125 ], [ 2.25, 48.8856875 ], [ 2.260625, 48.8856875 ] ] ] } },
{ "type": "Feature", "properties": { "zone_id": "750014", "price_m2": 10472.0, "heat_score": 78.5, "flood_score": 1.7, "elevation": 70.8, "dist_seine": 4.31, "n_sales": 227 }, "geometry": { "type": "Polygon", "coordinates": [ [ [ 2.260625, 48.891125 ], [ 2.260625, 48.8965625 ], [ 2.25, 48.8965625 ], [ 2.25, 48.891125 ], [ 2.260625, 48.891125 ] ] ] } },
{ "type": "Feature", "properties": { "zone_id": "750015", "price_m2": 9680.0, "heat_score": 60.1, "flood_score": 0.0, "elevation": 79.1, "dist_seine": 4.92, "n_sales": 87 }, "geometry": { "type": "Polygon", "coordinates": [ [ [ 2.260625, 48.8965625 ], [ 2.260625, 48.902 ], [ 2.25, 48.902 ], [ 2.25, 48.8965625 ], [ 2.260625, 48.8965625 ] ] ] } },
{ "type": "Feature", "properties": { "zone_id": "750100", "price_m2": 11004.0, "heat_score": 68.4, "flood_score": 0.0, "elevation": 69.2, "dist_seine": 4.14, "n_sales": 86 }, "geometry": { "type": "Polygon", "coordinates": [ [ [ 2.27125, 48.815 ], [ 2.27125, 48.8204375 ], [ 2.260625, 48.8204375 ], [ 2.260625, 48.815 ], [ 2.27125, 48.815 ] ] ] } },
{ "type": "Feature", "properties": { "zone_id": "750101", "price_m2": 8726.0, "heat_score": 58.7, "flood_score": 2.1, "elevation": 62.6, "dist_seine": 3.53, "n_sales": 243 }, "geometry": { "type": "Polygon", "coordinates": [ [ [ 2.27125, 48.8204375 ], [ 2.27125, 48.825875 ], [ 2.260625, 48.825875 ], [ 2.260625, 48.8204375 ], [ 2.27125, 48.8204375 ] ] ] } },
{ "type": "Feature", "properties": { "zone_id": "750102", "price_m2": 9522.0, "heat_score": 71.0, "flood_score": 3.6, "elevation": 59.7, "dist_seine": 2.93, "n_sales": 226 }, "geometry": { "type": "Polygon", "coordinates": [ [ [ 2.27125, 48.825875 ], [ 2.27125, 48.8313125 ], [ 2.260625, 48.8313125 ], [ 2.260625, 48.825875 ], [ 2.27125, 48.825875 ] ] ] } },
{ "type": "Feature", "properties": { "zone_id": "750103", "price_m2": 10916.0, "heat_score": 66.1, "flood_score": 15.7, "elevation": 56.8, "dist_seine": 2.33, "n_sales": 199 }, "geometry": { "type": "Polygon", "coordinates": [ [ [ 2.27125, 48.8313125 ], [ 2.27125, 48.83675 ], [ 2.260625, 48.83675 ], [ 2.260625, 48.8313125 ], [ 2.27125, 48.8313125 ] ] ] } },
{ "type": "Feature", "properties": { "zone_id": "750104", "price_m2": 12729.0, "heat_score": 71.1, "flood_score": 23.0, "elevation": 49.6, "dist_seine": 1.72, "n_sales": 376 }, "geometry": { "type": "Polygon", "coordinates": [ [ [ 2.27125, 48.83675 ], [ 2.27125, 48.8421875 ], [ 2.260625, 48.8421875 ], [ 2.260625, 48.83675 ], [ 2.27125, 48.83675 ] ] ] } },
{ "type": "Feature", "properties": { "zone_id": "750105", "price_m2": 10761.0, "heat_score": 55.7, "flood_score": 44.2, "elevation": 50.3, "dist_seine": 1.12, "n_sales": 312 }, "geometry": { "type": "Polygon", "coordinates": [ [ [ 2.27125, 48.8421875 ], [ 2.27125, 48.847625 ], [ 2.260625, 48.847625 ], [ 2.260625, 48.8421875 ], [ 2.27125, 48.8421875 ] ] ] } },
{ "type": "Feature", "properties": { "zone_id": "750106", "price_m2": 11273.0, "heat_score": 75.6, "flood_score": 69.2, "elevation": 39.0, "dist_seine": 0.52, "n_sales": 88 }, "geometry": { "type": "Polygon", "coordinates": [ [ [ 2.27125, 48.847625 ], [ 2.27125, 48.8530625 ], [ 2.260625, 48.8530625 ], [ 2.260625, 48.847625 ], [ 2.27125, 48.847625 ] ] ] } },
{ "type": "Feature", "properties": { "zone_id": "750107", "price_m2": 13400.0, "heat_score": 57.7, "flood_score": 90.8, "elevation": 36.6, "dist_seine": 0.09, "n_sales": 82 }, "geometry": { "type": "Polygon", "coordinates": [ [ [ 2.27125, 48.8530625 ], [ 2.27125, 48.8585 ], [ 2.260625, 48.8585 ], [ 2.260625, 48.8530625 ], [ 2.27125, 48.8530625 ] ] ] } },
{ "type": "Feature", "properties": { "zone_id": "750108", "price_m2": 11485.0, "heat_score": 69.3, "flood_score": 57.4, "elevation": 41.1, "dist_seine": 0.69, "n_sales": 380 }, "geometry": { "type": "Polygon", "coordinates": [ [ [ 2.27125, 48.8585 ], [ 2.27125, 48.8639375 ], [ 2.260625, 48.8639375 ], [ 2.260625, 48.8585 ], [ 2.27125, 48.8585 ] ] ] } },
{ "type": "Feature", "properties": { "zone_id": "750109", "price_m2": 11620.0, "heat_score": 30.0, "flood_score": 42.3, "elevation": 42.0, "dist_seine": 1.29, "n_sales": 111 }, "geometry": { "type": "Polygon", "coordinates": [ [ [ 2.27125, 48.8639375 ], [ 2.27125, 48.869375 ], [ 2.260625, 48.869375 ], [ 2.260625, 48.8639375 ], [ 2.27125, 48.8639375 ] ] ] } },
{ "type": "Feature", "properties": { "zone_id": "750110", "price_m2": 12144.0, "heat_score": 63.6, "flood_score": 23.8, "elevation": 54.4, "dist_seine": 1.9, "n_sales": 26 }, "geometry": { "type": "Polygon", "coordinates": [ [ [ 2.27125, 48.869375 ], [ 2.27125, 48.8748125 ], [ 2.260625, 48.8748125 ], [ 2.260625, 48.869375 ], [ 2.27125, 48.869375 ] ] ] } },
{ "type": "Feature", "properties": { "zone_id": "750111", "price_m2": 12524.0, "heat_score": 42.8, "flood_score": 2.2, "elevation": 54.0, "dist_seine": 2.5, "n_sales": 277 }, "geometry": { "type": "Polygon", "coordinates": [ [ [ 2.27125, 48.8748125 ], [ 2.27125, 48.88025 ], [ 2.260625, 48.88025 ], [ 2.260625, 48.8748125 ], [ 2.27125, 48.8748125 ] ] ] } },
{ "type": "Feature", "properties": { "zone_id": "750112", "price_m2": 12240.0, "heat_score": 63.3, "flood_score": 0.9, "elevation": 58.9, "dist_seine": 3.1, "n_sales": 213 }, "geometry": { "type": "Polygon", "coordinates": [ [ [ 2.27125, 48.88025 ], [ 2.27125, 48.8856875 ], [ 2.260625, 48.8856875 ], [ 2.260625, 48.88025 ], [ 2.27125, 48.88025 ] ] ] } },
{ "type": "Feature", "properties": { "zone_id": "750113", "price_m2": 9999.0, "heat_score": 58.8, "flood_score": 11.2, "elevation": 65.2, "dist_seine": 3.71, "n_sales": 271 }, "geometry": { "type": "Polygon", "coordinates": [ [ [ 2.27125, 48.8856875 ], [ 2.27125, 48.891125 ], [ 2.260625, 48.891125 ], [ 2.260625, 48.8856875 ], [ 2.27125, 48.8856875 ] ] ] } },
{ "type": "Feature", "properties": { "zone_id": "750114", "price_m2": 9295.0, "heat_score": 71.2, "flood_score": 3.2, "elevation": 68.6, "dist_seine": 4.31, "n_sales": 261 }, "geometry": { "type": "Polygon", "coordinates": [ [ [ 2.27125, 48.891125 ], [ 2.27125, 48.8965625 ], [ 2.260625, 48.8965625 ], [ 2.260625, 48.891125 ], [ 2.27125, 48.891125 ] ] ] } },
{ "type": "Feature", "properties": { "zone_id": "750115", "price_m2": 9294.0, "heat_score": 30.4, "flood_score": 3.2, "elevation": 73.8, "dist_seine": 4.92, "n_sales": 318 }, "geometry": { "type": "Polygon", "coordinates": [ [ [ 2.27125, 48.8965625 ], [ 2.27125, 48.902 ], [ 2.260625, 48.902 ], [ 2.260625, 48.8965625 ], [ 2.27125, 48.8965625 ] ] ] } },
{ "type": "Feature", "properties": { "zone_id": "750200", "price_m2": 8883.0, "heat_score": 51.4, "flood_score": 0.5, "elevation": 74.5, "dist_seine": 4.14, "n_sales": 397 }, "geometry": { "type": "Polygon", "coordinates": [ [ [ 2.281875, 48.815 ], [ 2.281875, 48.8204375 ], [ 2.27125, 48.8204375 ], [ 2.27125, 48.815 ], [ 2.281875, 48.815 ] ] ] } },
{ "type": "Feature", "properties": { "zone_id": "750201", "price_m2": 9516.0, "heat_score": 30.0, "flood_score": 14.4, "elevation": 68.5, "dist_seine": 3.53, "n_sales": 303 }, "geometry": { "type": "Polygon", "coordinates": [ [ [ 2.281875, 48.8204375 ], [ 2.281875, 48.825875 ], [ 2.27125, 48.825875 ], [ 2.27125, 48.8204375 ], [ 2.281875, 48.8204375 ] ] ] } },
{ "type": "Feature", "properties": { "zone_id": "750202", "price_m2": 10552.0, "heat_score": 40.9, "flood_score": 7.5, "elevation": 54.3, "dist_seine": 2.93, "n_sales": 289 }, "geometry": { "type": "Polygon", "coordinates": [ [ [ 2.281875, 48.825875 ], [ 2.281875, 48.8313125 ], [ 2.27125, 48.8313125 ], [ 2.27125, 48.825875 ], [ 2.281875, 48.825875 ] ] ] } },
{ "type": "Feature", "properties": { "zone_id": "750203", "price_m2": 11177.0, "heat_score": 75.1, "flood_score": 15.5, "elevation": 54.7, "dist_seine": 2.33, "n_sales": 41 }, "geometry": { "type": "Polygon", "coordinates": [ [ [ 2.281875, 48.8313125 ], [ 2.281875, 48.83675 ], [ 2.27125, 48.83675 ], [ 2.27125, 48.8313125 ], [ 2.281875, 48.8313125 ] ] ] } },
{ "type": "Feature", "properties": { "zone_id": "750204", "price_m2": 11839.0, "heat_score": 69.5, "flood_score": 23.8, "elevation": 53.5, "dist_seine": 1.72, "n_sales": 127 }, "geometry": { "type": "Polygon", "coordinates": [ [ [ 2.281875, 48.83675 ], [ 2.281875, 48.8421875 ], [ 2.27125, 48.8421875 ], [ 2.27125, 48.83675 ], [ 2.281875, 48.83675 ] ] ] } },
{ "type": "Feature", "properties": { "zone_id": "750205", "price_m2": 12263.0, "heat_score": 45.6, "flood_score": 33.7, "elevation": 46.7, "dist_seine": 1.12, "n_sales": 38 }, "geometry": { "type": "Polygon", "coordinates": [ [ [ 2.281875, 48.8421875 ], [ 2.281875, 48.847625 ], [ 2.27125, 48.847625 ], [ 2.27125, 48.8421875 ], [ 2.281875, 48.8421875 ] ] ] } },
{ "type": "Feature", "properties": { "zone_id": "750206", "price_m2": 11990.0, "heat_score": 66.9, "flood_score": 59.5, "elevation": 38.8, "dist_seine": 0.52, "n_sales": 142 }, "geometry": { "type": "Polygon", "coordinates": [ [ [ 2.281875, 48.847625 ], [ 2.281875, 48.8530625 ], [ 2.27125, 48.8530625 ], [ 2.27125, 48.847625 ], [ 2.281875, 48.847625 ] ] ] } },
{ "type": "Feature", "properties": { "zone_id": "750207", "price_m2": 10998.0, "heat_score": 88.4, "flood_score": 100.0, "elevation": 34.6, "dist_seine": 0.09, "n_sales": 215 }, "geometry": { "type": "Polygon", "coordinates": [ [ [ 2.281875, 48.8530625 ], [ 2.281875, 48.8585 ], [ 2.27125, 48.8585 ], [ 2.27125, 48.8530625 ], [ 2.281875, 48.8530625 ] ] ] } },
{ "type": "Feature", "properties": { "zone_id": "750208", "price_m2": 11994.0, "heat_score": 42.6, "flood_score": 57.9, "elevation": 40.3, "dist_seine": 0.69, "n_sales": 109 }, "geometry": { "type": "Polygon", "coordinates": [ [ [ 2.281875, 48.8585 ], [ 2.281875, 48.8639375 ], [ 2.27125, 48.8639375 ], [ 2.27125, 48.8585 ], [ 2.281875, 48.8585 ] ] ] } },
{ "type": "Feature", "properties": { "zone_id": "750209", "price_m2": 13174.0, "heat_score": 61.7, "flood_score": 40.5, "elevation": 50.6, "dist_seine": 1.29, "n_sales": 132 }, "geometry": { "type": "Polygon", "coordinates": [ [ [ 2.281875, 48.8639375 ], [ 2.281875, 48.869375 ], [ 2.27125, 48.869375 ], [ 2.27125, 48.8639375 ], [ 2.281875, 48.8639375 ] ] ] } },
{ "type": "Feature", "properties": { "zone_id": "750210", "price_m2": 13121.0, "heat_score": 55.5, "flood_score": 24.7, "elevation": 46.6, "dist_seine": 1.9, "n_sales": 211 }, "geometry": { "type": "Polygon", "coordinates": [ [ [ 2.281875, 48.869375 ], [ 2.281875, 48.8748125 ], [ 2.27125, 48.8748125 ], [ 2.27125, 48.869375 ], [ 2.281875, 48.869375 ] ] ] } },
{ "type": "Feature", "properties": { "zone_id": "750211", "price_m2": 11994.0, "heat_score": 59.5, "flood_score": 12.8, "elevation": 50.3, "dist_seine": 2.5, "n_sales": 347 }, "geometry": { "type": "Polygon", "coordinates": [ [ [ 2.281875, 48.8748125 ], [ 2.281875, 48.88025 ], [ 2.27125, 48.88025 ], [ 2.27125, 48.8748125 ], [ 2.281875, 48.8748125 ] ] ] } },
{ "type": "Feature", "properties": { "zone_id": "750212", "price_m2": 11721.0, "heat_score": 72.3, "flood_score": 1.7, "elevation": 56.8, "dist_seine": 3.1, "n_sales": 294 }, "geometry": { "type": "Polygon", "coordinates": [ [ [ 2.281875, 48.88025 ], [ 2.281875, 48.8856875 ], [ 2.27125, 48.8856875 ], [ 2.27125, 48.88025 ], [ 2.281875, 48.88025 ] ] ] } },
{ "type": "Feature", "properties": { "zone_id": "750213", "price_m2": 11394.0, "heat_score": 60.2, "flood_score": 1.2, "elevation": 65.6, "dist_seine": 3.71, "n_sales": 244 }, "geometry": { "type": "Polygon", "coordinates": [ [ [ 2.281875, 48.8856875 ], [ 2.281875, 48.891125 ], [ 2.27125, 48.891125 ], [ 2.27125, 48.8856875 ], [ 2.281875, 48.8856875 ] ] ] } },
{ "type": "Feature", "properties": { "zone_id": "750214", "price_m2": 12295.0, "heat_score": 30.0, "flood_score": 4.8, "elevation": 64.7, "dist_seine": 4.31, "n_sales": 205 }, "geometry": { "type": "Polygon", "coordinates": [ [ [ 2.281875, 48.891125 ], [ 2.281875, 48.8965625 ], [ 2.27125, 48.8965625 ], [ 2.27125, 48.891125 ], [ 2.281875, 48.891125 ] ] ] } },
{ "type": "Feature", "properties": { "zone_id": "750215", "price_m2": 10847.0, "heat_score": 75.6, "flood_score": 5.9, "elevation": 75.0, "dist_seine": 4.92, "n_sales": 269 }, "geometry": { "type": "Polygon", "coordinates": [ [ [ 2.281875, 48.8965625 ], [ 2.281875, 48.902 ], [ 2.27125, 48.902 ], [ 2.27125, 48.8965625 ], [ 2.281875, 48.8965625 ] ] ] } },
{ "type": "Feature", "properties": { "zone_id": "750300", "price_m2": 10283.0, "heat_score": 65.0, "flood_score": 0.0, "elevation": 64.9, "dist_seine": 4.14, "n_sales": 68 }, "geometry": { "type": "Polygon", "coordinates": [ [ [ 2.2925, 48.815 ], [ 2.2925, 48.8204375 ], [ 2.281875, 48.8204375 ], [ 2.281875, 48.815 ], [ 2.2925, 48.815 ] ] ] } },
{ "type": "Feature", "properties": { "zone_id": "750301", "price_m2": 11529.0, "heat_score": 77.2, "flood_score": 1.5, "elevation": 67.3, "dist_seine": 3.53, "n_sales": 297 }, "geometry": { "type": "Polygon", "coordinates": [ [ [ 2.2925, 48.8204375 ], [ 2.2925, 48.825875 ], [ 2.281875, 48.825875 ], [ 2.281875, 48.8204375 ], [ 2.2925, 48.8204375 ] ] ] } },
{ "type": "Feature", "properties": { "zone_id": "750302", "price_m2": 10709.0, "heat_score": 46.9, "flood_score": 12.9, "elevation": 63.3, "dist_seine": 2.93, "n_sales": 226 }, "geometry": { "type": "Polygon", "coordinates": [ [ [ 2.2925, 48.825875 ], [ 2.2925, 48.8313125 ], [ 2.281875, 48.8313125 ], [ 2.281875, 48.825875 ], [ 2.2925, 48.825875 ] ] ] } },
{ "type": "Feature", "properties": { "zone_id": "750303", "price_m2": 11955.0, "heat_score": 70.4, "flood_score": 20.9, "elevation": 54.9, "dist_seine": 2.33, "n_sales": 24 }, "geometry": { "type": "Polygon", "coordinates": [ [ [ 2.2925, 48.8313125 ], [ 2.2925, 48.83675 ], [ 2.281875, 48.83675 ], [ 2.281875, 48.8313125 ], [ 2.2925, 48.8313125 ] ] ] } },
{ "type": "Feature", "properties": { "zone_id": "750304", "price_m2": 12530.0, "heat_score": 62.7, "flood_score": 25.2, "elevation": 49.2, "dist_seine": 1.72, "n_sales": 278 }, "geometry": { "type": "Polygon", "coordinates": [ [ [ 2.2925, 48.83675 ], [ 2.2925, 48.8421875 ], [ 2.281875, 48.8421875 ], [ 2.281875, 48.83675 ], [ 2.2925, 48.83675 ] ] ] } },
{ "type": "Feature", "properties": { "zone_id": "750305", "price_m2": 12677.0, "heat_score": 71.6, "flood_score": 42.0, "elevation": 42.8, "dist_seine": 1.12, "n_sales": 360 }, "geometry": { "type": "Polygon", "coordinates": [ [ [ 2.2925, 48.8421875 ], [ 2.2925, 48.847625 ], [ 2.281875, 48.847625 ], [ 2.281875, 48.8421875 ], [ 2.2925, 48.8421875 ] ] ] } },
{ "type": "Feature", "properties": { "zone_id": "750306", "price_m2": 10471.0, "heat_score": 30.2, "flood_score": 63.7, "elevation": 34.7, "dist_seine": 0.52, "n_sales": 113 }, "geometry": { "type": "Polygon", "coordinates": [ [ [ 2.2925, 48.847625 ], [ 2.2925, 48.8530625 ], [ 2.281875, 48.8530625 ], [ 2.281875, 48.847625 ], [ 2.2925, 48.847625 ] ] ] } },
{ "type": "Feature", "properties": { "zone_id": "750307", "price_m2": 14152.0, "heat_score": 72.3, "flood_score": 96.8, "elevation": 35.5, "dist_seine": 0.09, "n_sales": 41 }, "geometry": { "type": "Polygon", "coordinates": [ [ [ 2.2925, 48.8530625 ], [ 2.2925, 48.8585 ], [ 2.281875, 48.8585 ], [ 2.281875, 48.8530625 ], [ 2.2925, 48.8530625 ] ] ] } },
{ "type": "Feature", "properties": { "zone_id": "750308", "price_m2": 14019.0, "heat_score": 55.1, "flood_score": 56.7, "elevation": 39.4, "dist_seine": 0.69, "n_sales": 218 }, "geometry": { "type": "Polygon", "coordinates": [ [ [ 2.2925, 48.8585 ], [ 2.2925, 48.8639375 ], [ 2.281875, 48.8639375 ], [ 2.281875, 48.8585 ], [ 2.2925, 48.8585 ] ] ] } },
{ "type": "Feature", "properties": { "zone_id": "750309", "price_m2": 13969.0, "heat_score": 57.6, "flood_score": 27.1, "elevation": 39.9, "dist_seine": 1.29, "n_sales": 392 }, "geometry": { "type": "Polygon", "coordinates": [ [ [ 2.2925, 48.8639375 ], [ 2.2925, 48.869375 ], [ 2.281875, 48.869375 ], [ 2.281875, 48.8639375 ], [ 2.2925, 48.8639375 ] ] ] } },
{ "type": "Feature", "properties": { "zone_id": "750310", "price_m2": 13067.0, "heat_score": 60.5, "flood_score": 17.5, "elevation": 49.6, "dist_seine": 1.9, "n_sales": 189 }, "geometry": { "type": "Polygon", "coordinates": [ [ [ 2.2925, 48.869375 ], [ 2.2925, 48.8748125 ], [ 2.281875, 48.8748125 ], [ 2.281875, 48.869375 ], [ 2.2925, 48.869375 ] ] ] } },
{ "type": "Feature", "properties": { "zone_id": "750311", "price_m2": 12753.0, "heat_score": 72.9, "flood_score": 19.0, "elevation": 58.4, "dist_seine": 2.5, "n_sales": 75 }, "geometry": { "type": "Polygon", "coordinates": [ [ [ 2.2925, 48.8748125 ], [ 2.2925, 48.88025 ], [ 2.281875, 48.88025 ], [ 2.281875, 48.8748125 ], [ 2.2925, 48.8748125 ] ] ] } },
{ "type": "Feature", "properties": { "zone_id": "750312", "price_m2": 13014.0, "heat_score": 71.1, "flood_score": 6.9, "elevation": 60.3, "dist_seine": 3.1, "n_sales": 253 }, "geometry": { "type": "Polygon", "coordinates": [ [ [ 2.2925, 48.88025 ], [ 2.2925, 48.8856875 ], [ 2.281875, 48.8856875 ], [ 2.281875, 48.88025 ], [ 2.2925, 48.88025 ] ] ] } },
{ "type": "Feature", "properties": { "zone_id": "750313", "price_m2": 10678.0, "heat_score": 48.4, "flood_score": 6.2, "elevation": 58.4, "dist_seine": 3.71, "n_sales": 182 }, "geometry": { "type": "Polygon", "coordinates": [ [ [ 2.2925, 48.8856875 ], [ 2.2925, 48.891125 ], [ 2.281875, 48.891125 ], [ 2.281875, 48.8856875 ], [ 2.2925, 48.8856875 ] ] ] } },
{ "type": "Feature", "properties": { "zone_id": "750314", "price_m2": 10954.0, "heat_score": 72.5, "flood_score": 0.5, "elevation": 70.5, "dist_seine": 4.31, "n_sales": 227 }, "geometry": { "type": "Polygon", "coordinates": [ [ [ 2.2925, 48.891125 ], [ 2.2925, 48.8965625 ], [ 2.281875, 48.8965625 ], [ 2.281875, 48.891125 ], [ 2.2925, 48.891125 ] ] ] } },
{ "type": "Feature", "properties": { "zone_id": "750315", "price_m2": 13296.0, "heat_score": 60.1, "flood_score": 2.6, "elevation": 74.3, "dist_seine": 4.92, "n_sales": 266 }, "geometry": { "type": "Polygon", "coordinates": [ [ [ 2.2925, 48.8965625 ], [ 2.2925, 48.902 ], [ 2.281875, 48.902 ], [ 2.281875, 48.8965625 ], [ 2.2925, 48.8965625 ] ] ] } },
{ "type": "Feature", "properties": { "zone_id": "750400", "price_m2": 10048.0, "heat_score": 43.3, "flood_score": 4.3, "elevation": 67.6, "dist_seine": 4.14, "n_sales": 113 }, "geometry": { "type": "Polygon", "coordinates": [ [ [ 2.303125, 48.815 ], [ 2.303125, 48.8204375 ], [ 2.2925, 48.8204375 ], [ 2.2925, 48.815 ], [ 2.303125, 48.815 ] ] ] } },
{ "type": "Feature", "properties": { "zone_id": "750401", "price_m2": 10835.0, "heat_score": 52.2, "flood_score": 1.0, "elevation": 64.6, "dist_seine": 3.53, "n_sales": 139 }, "geometry": { "type": "Polygon", "coordinates": [ [ [ 2.303125, 48.8204375 ], [ 2.303125, 48.825875 ], [ 2.2925, 48.825875 ], [ 2.2925, 48.8204375 ], [ 2.303125, 48.8204375 ] ] ] } },
{ "type": "Feature", "properties": { "zone_id": "750402", "price_m2": 12281.0, "heat_score": 70.7, "flood_score": 13.4, "elevation": 62.5, "dist_seine": 2.93, "n_sales": 110 }, "geometry": { "type": "Polygon", "coordinates": [ [ [ 2.303125, 48.825875 ], [ 2.303125, 48.8313125 ], [ 2.2925, 48.8313125 ], [ 2.2925, 48.825875 ], [ 2.303125, 48.825875 ] ] ] } },
{ "type": "Feature", "properties": { "zone_id": "750403", "price_m2": 11570.0, "heat_score": 30.0, "flood_score": 6.9, "elevation": 48.9, "dist_seine": 2.33, "n_sales": 248 }, "geometry": { "type": "Polygon", "coordinates": [ [ [ 2.303125, 48.8313125 ], [ 2.303125, 48.83675 ], [ 2.2925, 48.83675 ], [ 2.2925, 48.8313125 ], [ 2.303125, 48.8313125 ] ] ] } },
{ "type": "Feature", "properties": { "zone_id": "750404", "price_m2": 13008.0, "heat_score": 63.7, "flood_score": 24.3, "elevation": 46.7, "dist_seine": 1.72, "n_sales": 369 }, "geometry": { "type": "Polygon", "coordinates": [ [ [ 2.303125, 48.83675 ], [ 2.303125, 48.8421875 ], [ 2.2925, 48.8421875 ], [ 2.2925, 48.83675 ], [ 2.303125, 48.83675 ] ] ] } },
{ "type": "Feature", "properties": { "zone_id": "750405", "price_m2": 13872.0, "heat_score": 71.3, "flood_score": 34.5, "elevation": 42.6, "dist_seine": 1.12, "n_sales": 395 }, "geometry": { "type": "Polygon", "coordinates": [ [ [ 2.303125, 48.8421875 ], [ 2.303125, 48.847625 ], [ 2.2925, 48.847625 ], [ 2.2925, 48.8421875 ], [ 2.303125, 48.8421875 ] ] ] } },
{ "type": "Feature", "properties": { "zone_id": "750406", "price_m2": 13332.0, "heat_score": 49.9, "flood_score": 65.7, "elevation": 37.8, "dist_seine": 0.52, "n_sales": 260 }, "geometry": { "type": "Polygon", "coordinates": [ [ [ 2.303125, 48.847625 ], [ 2.303125, 48.8530625 ], [ 2.2925, 48.8530625 ], [ 2.2925, 48.847625 ], [ 2.303125, 48.847625 ] ] ] } },
{ "type": "Feature", "properties": { "zone_id": "750407", "price_m2": 12544.0, "heat_score": 30.6, "flood_score": 96.2, "elevation": 30.6, "dist_seine": 0.09, "n_sales": 108 }, "geometry": { "type": "Polygon", "coordinates": [ [ [ 2.303125, 48.8530625 ], [ 2.303125, 48.8585 ], [ 2.2925, 48.8585 ], [ 2.2925, 48.8530625 ], [ 2.303125, 48.8530625 ] ] ] } },
{ "type": "Feature", "properties": { "zone_id": "750408", "price_m2": 14286.0, "heat_score": 60.0, "flood_score": 57.5, "elevation": 37.5, "dist_seine": 0.69, "n_sales": 354 }, "geometry": { "type": "Polygon", "coordinates": [ [ [ 2.303125, 48.8585 ], [ 2.303125, 48.8639375 ], [ 2.2925, 48.8639375 ], [ 2.2925, 48.8585 ], [ 2.303125, 48.8585 ] ] ] } },
{ "type": "Feature", "properties": { "zone_id": "750409", "price_m2": 12809.0, "heat_score": 68.5, "flood_score": 35.9, "elevation": 44.4, "dist_seine": 1.29, "n_sales": 148 }, "geometry": { "type": "Polygon", "coordinates": [ [ [ 2.303125, 48.8639375 ], [ 2.303125, 48.869375 ], [ 2.2925, 48.869375 ], [ 2.2925, 48.8639375 ], [ 2.303125, 48.8639375 ] ] ] } },
{ "type": "Feature", "properties": { "zone_id": "750410", "price_m2": 13426.0, "heat_score": 74.2, "flood_score": 15.4, "elevation": 50.0, "dist_seine": 1.9, "n_sales": 259 }, "geometry": { "type": "Polygon", "coordinates": [ [ [ 2.303125, 48.869375 ], [ 2.303125, 48.8748125 ], [ 2.2925, 48.8748125 ], [ 2.2925, 48.869375 ], [ 2.303125, 48.869375 ] ] ] } },
{ "type": "Feature", "properties": { "zone_id": "750411", "price_m2": 12932.0, "heat_score": 41.9, "flood_score": 8.6, "elevation": 56.7, "dist_seine": 2.5, "n_sales": 259 }, "geometry": { "type": "Polygon", "coordinates": [ [ [ 2.303125, 48.8748125 ], [ 2.303125, 48.88025 ], [ 2.2925, 48.88025 ], [ 2.2925, 48.8748125 ], [ 2.303125, 48.8748125 ] ] ] } },
{ "type": "Feature", "properties": { "zone_id": "750412", "price_m2": 13603.0, "heat_score": 48.2, "flood_score": 0.3, "elevation": 55.5, "dist_seine": 3.1, "n_sales": 354 }, "geometry": { "type": "Polygon", "coordinates": [ [ [ 2.303125, 48.88025 ], [ 2.303125, 48.8856875 ], [ 2.2925, 48.8856875 ], [ 2.2925, 48.88025 ], [ 2.303125, 48.88025 ] ] ] } },
{ "type": "Feature", "properties": { "zone_id": "750413", "price_m2": 12680.0, "heat_score": 36.1, "flood_score": 3.3, "elevation": 61.4, "dist_seine": 3.71, "n_sales": 201 }, "geometry": { "type": "Polygon", "coordinates": [ [ [ 2.303125, 48.8856875 ], [ 2.303125, 48.891125 ], [ 2.2925, 48.891125 ], [ 2.2925, 48.8856875 ], [ 2.303125, 48.8856875 ] ] ] } },
{ "type": "Feature", "properties": { "zone_id": "750414", "price_m2": 11899.0, "heat_score": 78.0, "flood_score": 12.7, "elevation": 65.8, "dist_seine": 4.31, "n_sales": 332 }, "geometry": { "type": "Polygon", "coordinates": [ [ [ 2.303125, 48.891125 ], [ 2.303125, 48.8965625 ], [ 2.2925, 48.8965625 ], [ 2.2925, 48.891125 ], [ 2.303125, 48.891125 ] ] ] } },
{ "type": "Feature", "properties": { "zone_id": "750415", "price_m2": 9715.0, "heat_score": 74.7, "flood_score": 0.0, "elevation": 75.0, "dist_seine": 4.92, "n_sales": 298 }, "geometry": { "type": "Polygon", "coordinates": [ [ [ 2.303125, 48.8965625 ], [ 2.303125, 48.902 ], [ 2.2925, 48.902 ], [ 2.2925, 48.8965625 ], [ 2.303125, 48.8965625 ] ] ] } },
{ "type": "Feature", "properties": { "zone_id": "750500", "price_m2": 11791.0, "heat_score": 61.6, "flood_score": 5.8, "elevation": 69.7, "dist_seine": 4.14, "n_sales": 110 }, "geometry": { "type": "Polygon", "coordinates": [ [ [ 2.31375, 48.815 ], [ 2.31375, 48.8204375 ], [ 2.303125, 48.8204375 ], [ 2.303125, 48.815 ], [ 2.31375, 48.815 ] ] ] } },
{ "type": "Feature", "properties": { "zone_id": "750501", "price_m2": 10741.0, "heat_score": 52.7, "flood_score": 0.0, "elevation": 64.6, "dist_seine": 3.53, "n_sales": 34 }, "geometry": { "type": "Polygon", "coordinates": [ [ [ 2.31375, 48.8204375 ], [ 2.31375, 48.825875 ], [ 2.303125, 48.825875 ], [ 2.303125, 48.8204375 ], [ 2.31375, 48.8204375 ] ] ] } },
{ "type": "Feature", "properties": { "zone_id": "750502", "price_m2": 11858.0, "heat_score": 38.5, "flood_score": 2.3, "elevation": 57.1, "dist_seine": 2.93, "n_sales": 381 }, "geometry": { "type": "Polygon", "coordinates": [ [ [ 2.31375, 48.825875 ], [ 2.31375, 48.8313125 ], [ 2.303125, 48.8313125 ], [ 2.303125, 48.825875 ], [ 2.31375, 48.825875 ] ] ] } },
{ "type": "Feature", "properties": { "zone_id": "750503", "price_m2": 10020.0, "heat_score": 45.5, "flood_score": 11.3, "elevation": 50.5, "dist_seine": 2.33, "n_sales": 215 }, "geometry": { "type": "Polygon", "coordinates": [ [ [ 2.31375, 48.8313125 ], [ 2.31375, 48.83675 ], [ 2.303125, 48.83675 ], [ 2.303125, 48.8313125 ], [ 2.31375, 48.8313125 ] ] ] } },
{ "type": "Feature", "properties": { "zone_id": "750504", "price_m2": 12383.0, "heat_score": 30.0, "flood_score": 31.8, "elevation": 47.9, "dist_seine": 1.72, "n_sales": 349 }, "geometry": { "type": "Polygon", "coordinates": [ [ [ 2.31375, 48.83675 ], [ 2.31375, 48.8421875 ], [ 2.303125, 48.8421875 ], [ 2.303125, 48.83675 ], [ 2.31375, 48.83675 ] ] ] } },
{ "type": "Feature", "properties": { "zone_id": "750505", "price_m2": 12613.0, "heat_score": 58.0, "flood_score": 42.2, "elevation": 44.5, "dist_seine": 1.12, "n_sales": 91 }, "geometry": { "type": "Polygon", "coordinates": [ [ [ 2.31375, 48.8421875 ], [ 2.31375, 48.847625 ], [ 2.303125, 48.847625 ], [ 2.303125, 48.8421875 ], [ 2.31375, 48.8421875 ] ] ] } },
{ "type": "Feature", "properties": { "zone_id": "750506", "price_m2": 12928.0, "heat_score": 30.0, "flood_score": 64.3, "elevation": 39.6, "dist_seine": 0.52, "n_sales": 103 }, "geometry": { "type": "Polygon", "coordinates": [ [ [ 2.31375, 48.847625 ], [ 2.31375, 48.8530625 ], [ 2.303125, 48.8530625 ], [ 2.303125, 48.847625 ], [ 2.31375, 48.847625 ] ] ] } },
{ "type": "Feature", "properties": { "zone_id": "750507", "price_m2": 13801.0, "heat_score": 40.2, "flood_score": 92.2, "elevation": 33.1, "dist_seine": 0.09, "n_sales": 208 }, "geometry": { "type": "Polygon", "coordinates": [ [ [ 2.31375, 48.8530625 ], [ 2.31375, 48.8585 ], [ 2.303125, 48.8585 ], [ 2.303125, 48.8530625 ], [ 2.31375, 48.8530625 ] ] ] } },
{ "type": "Feature", "properties": { "zone_id": "750508", "price_m2": 13931.0, "heat_score": 63.9, "flood_score": 62.3, "elevation": 39.5, "dist_seine": 0.69, "n_sales": 166 }, "geometry": { "type": "Polygon", "coordinates": [ [ [ 2.31375, 48.8585 ], [ 2.31375, 48.8639375 ], [ 2.303125, 48.8639375 ], [ 2.303125, 48.8585 ], [ 2.31375, 48.8585 ] ] ] } },
{ "type": "Feature", "properties": { "zone_id": "750509", "price_m2": 13199.0, "heat_score": 30.0, "flood_score": 25.9, "elevation": 46.2, "dist_seine": 1.29, "n_sales": 109 }, "geometry": { "type": "Polygon", "coordinates": [ [ [ 2.31375, 48.8639375 ], [ 2.31375, 48.869375 ], [ 2.303125, 48.869375 ], [ 2.303125, 48.8639375 ], [ 2.31375, 48.8639375 ] ] ] } },
{ "type": "Feature", "properties": { "zone_id": "750510", "price_m2": 13329.0, "heat_score": 67.6, "flood_score": 14.0, "elevation": 51.3, "dist_seine": 1.9, "n_sales": 261 }, "geometry": { "type": "Polygon", "coordinates": [ [ [ 2.31375, 48.869375 ], [ 2.31375, 48.8748125 ], [ 2.303125, 48.8748125 ], [ 2.303125, 48.869375 ], [ 2.31375, 48.869375 ] ] ] } },
{ "type": "Feature", "properties": { "zone_id": "750511", "price_m2": 14465.0, "heat_score": 32.8, "flood_score": 15.6, "elevation": 57.4, "dist_seine": 2.5, "n_sales": 186 }, "geometry": { "type": "Polygon", "coordinates": [ [ [ 2.31375, 48.8748125 ], [ 2.31375, 48.88025 ], [ 2.303125, 48.88025 ], [ 2.303125, 48.8748125 ], [ 2.31375, 48.8748125 ] ] ] } },
{ "type": "Feature", "properties": { "zone_id": "750512", "price_m2": 12010.0, "heat_score": 63.2, "flood_score": 5.2, "elevation": 53.1, "dist_seine": 3.1, "n_sales": 131 }, "geometry": { "type": "Polygon", "coordinates": [ [ [ 2.31375, 48.88025 ], [ 2.31375, 48.8856875 ], [ 2.303125, 48.8856875 ], [ 2.303125, 48.88025 ], [ 2.31375, 48.88025 ] ] ] } },
{ "type": "Feature", "properties": { "zone_id": "750513", "price_m2": 11464.0, "heat_score": 72.3, "flood_score": 0.0, "elevation": 63.9, "dist_seine": 3.71, "n_sales": 35 }, "geometry": { "type": "Polygon", "coordinates": [ [ [ 2.31375, 48.8856875 ], [ 2.31375, 48.891125 ], [ 2.303125, 48.891125 ], [ 2.303125, 48.8856875 ], [ 2.31375, 48.8856875 ] ] ] } },
{ "type": "Feature", "properties": { "zone_id": "750514", "price_m2": 12612.0, "heat_score": 30.0, "flood_score": 2.5, "elevation": 68.8, "dist_seine": 4.31, "n_sales": 77 }, "geometry": { "type": "Polygon", "coordinates": [ [ [ 2.31375, 48.891125 ], [ 2.31375, 48.8965625 ], [ 2.303125, 48.8965625 ], [ 2.303125, 48.891125 ], [ 2.31375, 48.891125 ] ] ] } },
{ "type": "Feature", "properties": { "zone_id": "750515", "price_m2": 12284.0, "heat_score": 73.3, "flood_score": 5.2, "elevation": 69.6, "dist_seine": 4.92, "n_sales": 20 }, "geometry": { "type": "Polygon", "coordinates": [ [ [ 2.31375, 48.8965625 ], [ 2.31375, 48.902 ], [ 2.303125, 48.902 ], [ 2.303125, 48.8965625 ], [ 2.31375, 48.8965625 ] ] ] } },
{ "type": "Feature", "properties": { "zone_id": "750600", "price_m2": 10628.0, "heat_score": 80.4, "flood_score": 1.4, "elevation": 63.6, "dist_seine": 4.14, "n_sales": 146 }, "geometry": { "type": "Polygon", "coordinates": [ [ [ 2.324375, 48.815 ], [ 2.324375, 48.8204375 ], [ 2.31375, 48.8204375 ], [ 2.31375, 48.815 ], [ 2.324375, 48.815 ] ] ] } },
{ "type": "Feature", "properties": { "zone_id": "750601", "price_m2": 12315.0, "heat_score": 30.0, "flood_score": 6.7, "elevation": 63.5, "dist_seine": 3.53, "n_sales": 106 }, "geometry": { "type": "Polygon", "coordinates": [ [ [ 2.324375, 48.8204375 ], [ 2.324375, 48.825875 ], [ 2.31375, 48.825875 ], [ 2.31375, 48.8204375 ], [ 2.324375, 48.8204375 ] ] ] } },
{ "type": "Feature", "properties": { "zone_id": "750602", "price_m2": 10161.0, "heat_score": 62.3, "flood_score": 7.8, "elevation": 53.6, "dist_seine": 2.93, "n_sales": 200 }, "geometry": { "type": "Polygon", "coordinates": [ [ [ 2.324375, 48.825875 ], [ 2.324375, 48.8313125 ], [ 2.31375, 48.8313125 ], [ 2.31375, 48.825875 ], [ 2.324375, 48.825875 ] ] ] } },
{ "type": "Feature", "properties": { "zone_id": "750603", "price_m2": 13011.0, "heat_score": 75.3, "flood_score": 20.3, "elevation": 59.0, "dist_seine": 2.33, "n_sales": 111 }, "geometry": { "type": "Polygon", "coordinates": [ [ [ 2.324375, 48.8313125 ], [ 2.324375, 48.83675 ], [ 2.31375, 48.83675 ], [ 2.31375, 48.8313125 ], [ 2.324375, 48.8313125 ] ] ] } },
{ "type": "Feature", "properties": { "zone_id": "750604", "price_m2": 14515.0, "heat_score": 70.4, "flood_score": 21.9, "elevation": 54.9, "dist_seine": 1.72, "n_sales": 50 }, "geometry": { "type": "Polygon", "coordinates": [ [ [ 2.324375, 48.83675 ], [ 2.324375, 48.8421875 ], [ 2.31375, 48.8421875 ], [ 2.31375, 48.83675 ], [ 2.324375, 48.83675 ] ] ] } },
{ "type": "Feature", "properties": { "zone_id": "750605", "price_m2": 13937.0, "heat_score": 50.2, "flood_score": 34.7, "elevation": 45.9, "dist_seine": 1.12, "n_sales": 157 }, "geometry": { "type": "Polygon", "coordinates": [ [ [ 2.324375, 48.8421875 ], [ 2.324375, 48.847625 ], [ 2.31375, 48.847625 ], [ 2.31375, 48.8421875 ], [ 2.324375, 48.8421875 ] ] ] } },
{ "type": "Feature", "properties": { "zone_id": "750606", "price_m2": 15147.0, "heat_score": 54.1, "flood_score": 68.2, "elevation": 35.3, "dist_seine": 0.52, "n_sales": 134 }, "geometry": { "type": "Polygon", "coordinates": [ [ [ 2.324375, 48.847625 ], [ 2.324375, 48.8530625 ], [ 2.31375, 48.8530625 ], [ 2.31375, 48.847625 ], [ 2.324375, 48.847625 ] ] ] } },
{ "type": "Feature", "properties": { "zone_id": "750607", "price_m2": 14353.0, "heat_score": 54.6, "flood_score": 99.8, "elevation": 32.4, "dist_seine": 0.09, "n_sales": 300 }, "geometry": { "type": "Polygon", "coordinates": [ [ [ 2.324375, 48.8530625 ], [ 2.324375, 48.8585 ], [ 2.31375, 48.8585 ], [ 2.31375, 48.8530625 ], [ 2.324375, 48.8530625 ] ] ] } },
{ "type": "Feature", "properties": { "zone_id": "750608", "price_m2": 14369.0, "heat_score": 77.8, "flood_score": 56.6, "elevation": 43.2, "dist_seine": 0.69, "n_sales": 237 }, "geometry": { "type": "Polygon", "coordinates": [ [ [ 2.324375, 48.8585 ], [ 2.324375, 48.8639375 ], [ 2.31375, 48.8639375 ], [ 2.31375, 48.8585 ], [ 2.324375, 48.8585 ] ] ] } },
{ "type": "Feature", "properties": { "zone_id": "750609", "price_m2": 14656.0, "heat_score": 60.5, "flood_score": 34.2, "elevation": 41.6, "dist_seine": 1.29, "n_sales": 360 }, "geometry": { "type": "Polygon", "coordinates": [ [ [ 2.324375, 48.8639375 ], [ 2.324375, 48.869375 ], [ 2.31375, 48.869375 ], [ 2.31375, 48.8639375 ], [ 2.324375, 48.8639375 ] ] ] } },
{ "type": "Feature", "properties": { "zone_id": "750610", "price_m2": 13868.0, "heat_score": 85.8, "flood_score": 22.5, "elevation": 53.3, "dist_seine": 1.9, "n_sales": 255 }, "geometry": { "type": "Polygon", "coordinates": [ [ [ 2.324375, 48.869375 ], [ 2.324375, 48.8748125 ], [ 2.31375, 48.8748125 ], [ 2.31375, 48.869375 ], [ 2.324375, 48.869375 ] ] ] } },
{ "type": "Feature", "properties": { "zone_id": "750611", "price_m2": 12351.0, "heat_score": 65.8, "flood_score": 7.0, "elevation": 54.6, "dist_seine": 2.5, "n_sales": 252 }, "geometry": { "type": "Polygon", "coordinates": [ [ [ 2.324375, 48.8748125 ], [ 2.324375, 48.88025 ], [ 2.31375, 48.88025 ], [ 2.31375, 48.8748125 ], [ 2.324375, 48.8748125 ] ] ] } },
{ "type": "Feature", "properties": { "zone_id": "750612", "price_m2": 12543.0, "heat_score": 47.6, "flood_score": 5.9, "elevation": 58.3, "dist_seine": 3.1, "n_sales": 313 }, "geometry": { "type": "Polygon", "coordinates": [ [ [ 2.324375, 48.88025 ], [ 2.324375, 48.8856875 ], [ 2.31375, 48.8856875 ], [ 2.31375, 48.88025 ], [ 2.324375, 48.88025 ] ] ] } },
{ "type": "Feature", "properties": { "zone_id": "750613", "price_m2": 11700.0, "heat_score": 38.5, "flood_score": 2.5, "elevation": 69.0, "dist_seine": 3.71, "n_sales": 358 }, "geometry": { "type": "Polygon", "coordinates": [ [ [ 2.324375, 48.8856875 ], [ 2.324375, 48.891125 ], [ 2.31375, 48.891125 ], [ 2.31375, 48.8856875 ], [ 2.324375, 48.8856875 ] ] ] } },
{ "type": "Feature", "properties": { "zone_id": "750614", "price_m2": 9978.0, "heat_score": 84.1, "flood_score": 0.0, "elevation": 73.1, "dist_seine": 4.31, "n_sales": 222 }, "geometry": { "type": "Polygon", "coordinates": [ [ [ 2.324375, 48.891125 ], [ 2.324375, 48.8965625 ], [ 2.31375, 48.8965625 ], [ 2.31375, 48.891125 ], [ 2.324375, 48.891125 ] ] ] } },
{ "type": "Feature", "properties": { "zone_id": "750615", "price_m2": 13306.0, "heat_score": 70.2, "flood_score": 9.5, "elevation": 73.3, "dist_seine": 4.92, "n_sales": 317 }, "geometry": { "type": "Polygon", "coordinates": [ [ [ 2.324375, 48.8965625 ], [ 2.324375, 48.902 ], [ 2.31375, 48.902 ], [ 2.31375, 48.8965625 ], [ 2.324375, 48.8965625 ] ] ] } },
{ "type": "Feature", "properties": { "zone_id": "750700", "price_m2": 11930.0, "heat_score": 64.6, "flood_score": 12.4, "elevation": 67.8, "dist_seine": 4.14, "n_sales": 258 }, "geometry": { "type": "Polygon", "coordinates": [ [ [ 2.335, 48.815 ], [ 2.335, 48.8204375 ], [ 2.324375, 48.8204375 ], [ 2.324375, 48.815 ], [ 2.335, 48.815 ] ] ] } },
{ "type": "Feature", "properties": { "zone_id": "750701", "price_m2": 12993.0, "heat_score": 55.9, "flood_score": 21.2, "elevation": 61.8, "dist_seine": 3.53, "n_sales": 141 }, "geometry": { "type": "Polygon", "coordinates": [ [ [ 2.335, 48.8204375 ], [ 2.335, 48.825875 ], [ 2.324375, 48.825875 ], [ 2.324375, 48.8204375 ], [ 2.335, 48.8204375 ] ] ] } },
{ "type": "Feature", "properties": { "zone_id": "750702", "price_m2": 13137.0, "heat_score": 57.9, "flood_score": 8.8, "elevation": 52.6, "dist_seine": 2.93, "n_sales": 296 }, "geometry": { "type": "Polygon", "coordinates": [ [ [ 2.335, 48.825875 ], [ 2.335, 48.8313125 ], [ 2.324375, 48.8313125 ], [ 2.324375, 48.825875 ], [ 2.335, 48.825875 ] ] ] } },
{ "type": "Feature", "properties": { "zone_id": "750703", "price_m2": 12534.0, "heat_score": 51.0, "flood_score": 7.2, "elevation": 49.6, "dist_seine": 2.33, "n_sales": 112 }, "geometry": { "type": "Polygon", "coordinates": [ [ [ 2.335, 48.8313125 ], [ 2.335, 48.83675 ], [ 2.324375, 48.83675 ], [ 2.324375, 48.8313125 ], [ 2.335, 48.8313125 ] ] ] } },
{ "type": "Feature", "properties": { "zone_id": "750704", "price_m2": 11560.0, "heat_score": 46.1, "flood_score": 20.8, "elevation": 49.0, "dist_seine": 1.72, "n_sales": 355 }, "geometry": { "type": "Polygon", "coordinates": [ [ [ 2.335, 48.83675 ], [ 2.335, 48.8421875 ], [ 2.324375, 48.8421875 ], [ 2.324375, 48.83675 ], [ 2.335, 48.83675 ] ] ] } },
{ "type": "Feature", "properties": { "zone_id": "750705", "price_m2": 12625.0, "heat_score": 62.1, "flood_score": 39.2, "elevation": 46.8, "dist_seine": 1.12, "n_sales": 62 }, "geometry": { "type": "Polygon", "coordinates": [ [ [ 2.335, 48.8421875 ], [ 2.335, 48.847625 ], [ 2.324375, 48.847625 ], [ 2.324375, 48.8421875 ], [ 2.335, 48.8421875 ] ] ] } },
{ "type": "Feature", "properties": { "zone_id": "750706", "price_m2": 12454.0, "heat_score": 81.5, "flood_score": 59.1, "elevation": 31.6, "dist_seine": 0.52, "n_sales": 302 }, "geometry": { "type": "Polygon", "coordinates": [ [ [ 2.335, 48.847625 ], [ 2.335, 48.8530625 ], [ 2.324375, 48.8530625 ], [ 2.324375, 48.847625 ], [ 2.335, 48.847625 ] ] ] } },
{ "type": "Feature", "properties": { "zone_id": "750707", "price_m2": 13574.0, "heat_score": 62.2, "flood_score": 90.2, "elevation": 33.7, "dist_seine": 0.09, "n_sales": 254 }, "geometry": { "type": "Polygon", "coordinates": [ [ [ 2.335, 48.8530625 ], [ 2.335, 48.8585 ], [ 2.324375, 48.8585 ], [ 2.324375, 48.8530625 ], [ 2.335, 48.8530625 ] ] ] } },
{ "type": "Feature", "properties": { "zone_id": "750708", "price_m2": 14153.0, "heat_score": 81.3, "flood_score": 58.7, "elevation": 45.3, "dist_seine": 0.69, "n_sales": 175 }, "geometry": { "type": "Polygon", "coordinates": [ [ [ 2.335, 48.8585 ], [ 2.335, 48.8639375 ], [ 2.324375, 48.8639375 ], [ 2.324375, 48.8585 ], [ 2.335, 48.8585 ] ] ] } },
{ "type": "Feature", "properties": { "zone_id": "750709", "price_m2": 15050.0, "heat_score": 69.7, "flood_score": 32.9, "elevation": 46.5, "dist_seine": 1.29, "n_sales": 65 }, "geometry": { "type": "Polygon", "coordinates": [ [ [ 2.335, 48.8639375 ], [ 2.335, 48.869375 ], [ 2.324375, 48.869375 ], [ 2.324375, 48.8639375 ], [ 2.335, 48.8639375 ] ] ] } },
{ "type": "Feature", "properties": { "zone_id": "750710", "price_m2": 12495.0, "heat_score": 58.5, "flood_score": 17.5, "elevation": 54.3, "dist_seine": 1.9, "n_sales": 132 }, "geometry": { "type": "Polygon", "coordinates": [ [ [ 2.335, 48.869375 ], [ 2.335, 48.8748125 ], [ 2.324375, 48.8748125 ], [ 2.324375, 48.869375 ], [ 2.335, 48.869375 ] ] ] } },
{ "type": "Feature", "properties": { "zone_id": "750711", "price_m2": 14197.0, "heat_score": 54.8, "flood_score": 8.1, "elevation": 54.5, "dist_seine": 2.5, "n_sales": 81 }, "geometry": { "type": "Polygon", "coordinates": [ [ [ 2.335, 48.8748125 ], [ 2.335, 48.88025 ], [ 2.324375, 48.88025 ], [ 2.324375, 48.8748125 ], [ 2.335, 48.8748125 ] ] ] } },
{ "type": "Feature", "properties": { "zone_id": "750712", "price_m2": 13741.0, "heat_score": 62.2, "flood_score": 6.4, "elevation": 64.8, "dist_seine": 3.1, "n_sales": 161 }, "geometry": { "type": "Polygon", "coordinates": [ [ [ 2.335, 48.88025 ], [ 2.335, 48.8856875 ], [ 2.324375, 48.8856875 ], [ 2.324375, 48.88025 ], [ 2.335, 48.88025 ] ] ] } },
{ "type": "Feature", "properties": { "zone_id": "750713", "price_m2": 13542.0, "heat_score": 68.2, "flood_score": 0.0, "elevation": 67.3, "dist_seine": 3.71, "n_sales": 230 }, "geometry": { "type": "Polygon", "coordinates": [ [ [ 2.335, 48.8856875 ], [ 2.335, 48.891125 ], [ 2.324375, 48.891125 ], [ 2.324375, 48.8856875 ], [ 2.335, 48.8856875 ] ] ] } },
{ "type": "Feature", "properties": { "zone_id": "750714", "price_m2": 9454.0, "heat_score": 57.8, "flood_score": 8.8, "elevation": 70.6, "dist_seine": 4.31, "n_sales": 160 }, "geometry": { "type": "Polygon", "coordinates": [ [ [ 2.335, 48.891125 ], [ 2.335, 48.8965625 ], [ 2.324375, 48.8965625 ], [ 2.324375, 48.891125 ], [ 2.335, 48.891125 ] ] ] } },
{ "type": "Feature", "properties": { "zone_id": "750715", "price_m2": 14394.0, "heat_score": 41.1, "flood_score": 3.9, "elevation": 72.9, "dist_seine": 4.92, "n_sales": 198 }, "geometry": { "type": "Polygon", "coordinates": [ [ [ 2.335, 48.8965625 ], [ 2.335, 48.902 ], [ 2.324375, 48.902 ], [ 2.324375, 48.8965625 ], [ 2.335, 48.8965625 ] ] ] } },
{ "type": "Feature", "properties": { "zone_id": "750800", "price_m2": 11801.0, "heat_score": 53.5, "flood_score": 3.2, "elevation": 67.8, "dist_seine": 4.14, "n_sales": 230 }, "geometry": { "type": "Polygon", "coordinates": [ [ [ 2.345625, 48.815 ], [ 2.345625, 48.8204375 ], [ 2.335, 48.8204375 ], [ 2.335, 48.815 ], [ 2.345625, 48.815 ] ] ] } },
{ "type": "Feature", "properties": { "zone_id": "750801", "price_m2": 12397.0, "heat_score": 70.9, "flood_score": 4.0, "elevation": 63.0, "dist_seine": 3.53, "n_sales": 397 }, "geometry": { "type": "Polygon", "coordinates": [ [ [ 2.345625, 48.8204375 ], [ 2.345625, 48.825875 ], [ 2.335, 48.825875 ], [ 2.335, 48.8204375 ], [ 2.345625, 48.8204375 ] ] ] } },
{ "type": "Feature", "properties": { "zone_id": "750802", "price_m2": 12958.0, "heat_score": 80.1, "flood_score": 11.8, "elevation": 54.2, "dist_seine": 2.93, "n_sales": 253 }, "geometry": { "type": "Polygon", "coordinates": [ [ [ 2.345625, 48.825875 ], [ 2.345625, 48.8313125 ], [ 2.335, 48.8313125 ], [ 2.335, 48.825875 ], [ 2.345625, 48.825875 ] ] ] } },
{ "type": "Feature", "properties": { "zone_id": "750803", "price_m2": 13219.0, "heat_score": 59.1, "flood_score": 6.7, "elevation": 49.4, "dist_seine": 2.33, "n_sales": 381 }, "geometry": { "type": "Polygon", "coordinates": [ [ [ 2.345625, 48.8313125 ], [ 2.345625, 48.83675 ], [ 2.335, 48.83675 ], [ 2.335, 48.8313125 ], [ 2.345625, 48.8313125 ] ] ] } },
{ "type": "Feature", "properties": { "zone_id": "750804", "price_m2": 13185.0, "heat_score": 76.7, "flood_score": 22.3, "elevation": 52.7, "dist_seine": 1.72, "n_sales": 359 }, "geometry": { "type": "Polygon", "coordinates": [ [ [ 2.345625, 48.83675 ], [ 2.345625, 48.8421875 ], [ 2.335, 48.8421875 ], [ 2.335, 48.83675 ], [ 2.345625, 48.83675 ] ] ] } },
{ "type": "Feature", "properties": { "zone_id": "750805", "price_m2": 13273.0, "heat_score": 65.0, "flood_score": 43.1, "elevation": 41.8, "dist_seine": 1.12, "n_sales": 233 }, "geometry": { "type": "Polygon", "coordinates": [ [ [ 2.345625, 48.8421875 ], [ 2.345625, 48.847625 ], [ 2.335, 48.847625 ], [ 2.335, 48.8421875 ], [ 2.345625, 48.8421875 ] ] ] } },
{ "type": "Feature", "properties": { "zone_id": "750806", "price_m2": 14349.0, "heat_score": 65.3, "flood_score": 68.2, "elevation": 41.4, "dist_seine": 0.52, "n_sales": 357 }, "geometry": { "type": "Polygon", "coordinates": [ [ [ 2.345625, 48.847625 ], [ 2.345625, 48.8530625 ], [ 2.335, 48.8530625 ], [ 2.335, 48.847625 ], [ 2.345625, 48.847625 ] ] ] } },
{ "type": "Feature", "properties": { "zone_id": "750807", "price_m2": 14124.0, "heat_score": 54.6, "flood_score": 100.0, "elevation": 35.9, "dist_seine": 0.09, "n_sales": 144 }, "geometry": { "type": "Polygon", "coordinates": [ [ [ 2.345625, 48.8530625 ], [ 2.345625, 48.8585 ], [ 2.335, 48.8585 ], [ 2.335, 48.8530625 ], [ 2.345625, 48.8530625 ] ] ] } },
{ "type": "Feature", "properties": { "zone_id": "750808", "price_m2": 12836.0, "heat_score": 52.3, "flood_score": 54.6, "elevation": 42.4, "dist_seine": 0.69, "n_sales": 312 }, "geometry": { "type": "Polygon", "coordinates": [ [ [ 2.345625, 48.8585 ], [ 2.345625, 48.8639375 ], [ 2.335, 48.8639375 ], [ 2.335, 48.8585 ], [ 2.345625, 48.8585 ] ] ] } },
{ "type": "Feature", "properties": { "zone_id": "750809", "price_m2": 14121.0, "heat_score": 67.9, "flood_score": 23.1, "elevation": 46.0, "dist_seine": 1.29, "n_sales": 382 }, "geometry": { "type": "Polygon", "coordinates": [ [ [ 2.345625, 48.8639375 ], [ 2.345625, 48.869375 ], [ 2.335, 48.869375 ], [ 2.335, 48.8639375 ], [ 2.345625, 48.8639375 ] ] ] } },
{ "type": "Feature", "properties": { "zone_id": "750810", "price_m2": 14818.0, "heat_score": 74.6, "flood_score": 23.0, "elevation": 52.6, "dist_seine": 1.9, "n_sales": 144 }, "geometry": { "type": "Polygon", "coordinates": [ [ [ 2.345625, 48.869375 ], [ 2.345625, 48.8748125 ], [ 2.335, 48.8748125 ], [ 2.335, 48.869375 ], [ 2.345625, 48.869375 ] ] ] } },
{ "type": "Feature", "properties": { "zone_id": "750811", "price_m2": 14334.0, "heat_score": 36.6, "flood_score": 17.3, "elevation": 53.4, "dist_seine": 2.5, "n_sales": 142 }, "geometry": { "type": "Polygon", "coordinates": [ [ [ 2.345625, 48.8748125 ], [ 2.345625, 48.88025 ], [ 2.335, 48.88025 ], [ 2.335, 48.8748125 ], [ 2.345625, 48.8748125 ] ] ] } },
{ "type": "Feature", "properties": { "zone_id": "750812", "price_m2": 12244.0, "heat_score": 48.9, "flood_score": 2.7, "elevation": 67.2, "dist_seine": 3.1, "n_sales": 285 }, "geometry": { "type": "Polygon", "coordinates": [ [ [ 2.345625, 48.88025 ], [ 2.345625, 48.8856875 ], [ 2.335, 48.8856875 ], [ 2.335, 48.88025 ], [ 2.345625, 48.88025 ] ] ] } },
{ "type": "Feature", "properties": { "zone_id": "750813", "price_m2": 12710.0, "heat_score": 57.0, "flood_score": 5.3, "elevation": 69.0, "dist_seine": 3.71, "n_sales": 111 }, "geometry": { "type": "Polygon", "coordinates": [ [ [ 2.345625, 48.8856875 ], [ 2.345625, 48.891125 ], [ 2.335, 48.891125 ], [ 2.335, 48.8856875 ], [ 2.345625, 48.8856875 ] ] ] } },
{ "type": "Feature", "properties": { "zone_id": "750814", "price_m2": 12689.0, "heat_score": 57.1, "flood_score": 8.4, "elevation": 73.8, "dist_seine": 4.31, "n_sales": 285 }, "geometry": { "type": "Polygon", "coordinates": [ [ [ 2.345625, 48.891125 ], [ 2.345625, 48.8965625 ], [ 2.335, 48.8965625 ], [ 2.335, 48.891125 ], [ 2.345625, 48.891125 ] ] ] } },
{ "type": "Feature", "properties": { "zone_id": "750815", "price_m2": 14924.0, "heat_score": 51.1, "flood_score": 0.0, "elevation": 78.3, "dist_seine": 4.92, "n_sales": 314 }, "geometry": { "type": "Polygon", "coordinates": [ [ [ 2.345625, 48.8965625 ], [ 2.345625, 48.902 ], [ 2.335, 48.902 ], [ 2.335, 48.8965625 ], [ 2.345625, 48.8965625 ] ] ] } },
{ "type": "Feature", "properties": { "zone_id": "750900", "price_m2": 11579.0, "heat_score": 34.1, "flood_score": 0.2, "elevation": 68.3, "dist_seine": 4.14, "n_sales": 104 }, "geometry": { "type": "Polygon", "coordinates": [ [ [ 2.35625, 48.815 ], [ 2.35625, 48.8204375 ], [ 2.345625, 48.8204375 ], [ 2.345625, 48.815 ], [ 2.35625, 48.815 ] ] ] } },
{ "type": "Feature", "properties": { "zone_id": "750901", "price_m2": 12557.0, "heat_score": 79.7, "flood_score": 0.0, "elevation": 63.3, "dist_seine": 3.53, "n_sales": 272 }, "geometry": { "type": "Polygon", "coordinates": [ [ [ 2.35625, 48.8204375 ], [ 2.35625, 48.825875 ], [ 2.345625, 48.825875 ], [ 2.345625, 48.8204375 ], [ 2.35625, 48.8204375 ] ] ] } },
{ "type": "Feature", "properties": { "zone_id": "750902", "price_m2": 13221.0, "heat_score": 64.8, "flood_score": 9.6, "elevation": 62.2, "dist_seine": 2.93, "n_sales": 87 }, "geometry": { "type": "Polygon", "coordinates": [ [ [ 2.35625, 48.825875 ], [ 2.35625, 48.8313125 ], [ 2.345625, 48.8313125 ], [ 2.345625, 48.825875 ], [ 2.35625, 48.825875 ] ] ] } },
{ "type": "Feature", "properties": { "zone_id": "750903", "price_m2": 13740.0, "heat_score": 58.0, "flood_score": 17.4, "elevation": 51.2, "dist_seine": 2.33, "n_sales": 181 }, "geometry": { "type": "Polygon", "coordinates": [ [ [ 2.35625, 48.8313125 ], [ 2.35625, 48.83675 ], [ 2.345625, 48.83675 ], [ 2.345625, 48.8313125 ], [ 2.35625, 48.8313125 ] ] ] } },
{ "type": "Feature", "properties": { "zone_id": "750904", "price_m2": 13000.0, "heat_score": 30.0, "flood_score": 28.0, "elevation": 49.1, "dist_seine": 1.72, "n_sales": 367 }, "geometry": { "type": "Polygon", "coordinates": [ [ [ 2.35625, 48.83675 ], [ 2.35625, 48.8421875 ], [ 2.345625, 48.8421875 ], [ 2.345625, 48.83675 ], [ 2.35625, 48.83675 ] ] ] } },
{ "type": "Feature", "properties": { "zone_id": "750905", "price_m2": 13079.0, "heat_score": 58.0, "flood_score": 37.5, "elevation": 41.7, "dist_seine": 1.12, "n_sales": 56 }, "geometry": { "type": "Polygon", "coordinates": [ [ [ 2.35625, 48.8421875 ], [ 2.35625, 48.847625 ], [ 2.345625, 48.847625 ], [ 2.345625, 48.8421875 ], [ 2.35625, 48.8421875 ] ] ] } },
{ "type": "Feature", "properties": { "zone_id": "750906", "price_m2": 12849.0, "heat_score": 62.2, "flood_score": 64.1, "elevation": 32.8, "dist_seine": 0.52, "n_sales": 230 }, "geometry": { "type": "Polygon", "coordinates": [ [ [ 2.35625, 48.847625 ], [ 2.35625, 48.8530625 ], [ 2.345625, 48.8530625 ], [ 2.345625, 48.847625 ], [ 2.35625, 48.847625 ] ] ] } },
{ "type": "Feature", "properties": { "zone_id": "750907", "price_m2": 13937.0, "heat_score": 51.8, "flood_score": 89.6, "elevation": 35.8, "dist_seine": 0.09, "n_sales": 224 }, "geometry": { "type": "Polygon", "coordinates": [ [ [ 2.35625, 48.8530625 ], [ 2.35625, 48.8585 ], [ 2.345625, 48.8585 ], [ 2.345625, 48.8530625 ], [ 2.35625, 48.8530625 ] ] ] } },
{ "type": "Feature", "properties": { "zone_id": "750908", "price_m2": 15000.0, "heat_score": 30.0, "flood_score": 56.3, "elevation": 40.6, "dist_seine": 0.69, "n_sales": 308 }, "geometry": { "type": "Polygon", "coordinates": [ [ [ 2.35625, 48.8585 ], [ 2.35625, 48.8639375 ], [ 2.345625, 48.8639375 ], [ 2.345625, 48.8585 ], [ 2.35625, 48.8585 ] ] ] } },
{ "type": "Feature", "properties": { "zone_id": "750909", "price_m2": 13711.0, "heat_score": 44.5, "flood_score": 32.1, "elevation": 46.2, "dist_seine": 1.29, "n_sales": 52 }, "geometry": { "type": "Polygon", "coordinates": [ [ [ 2.35625, 48.8639375 ], [ 2.35625, 48.869375 ], [ 2.345625, 48.869375 ], [ 2.345625, 48.8639375 ], [ 2.35625, 48.8639375 ] ] ] } },
{ "type": "Feature", "properties": { "zone_id": "750910", "price_m2": 12786.0, "heat_score": 70.0, "flood_score": 24.1, "elevation": 45.9, "dist_seine": 1.9, "n_sales": 199 }, "geometry": { "type": "Polygon", "coordinates": [ [ [ 2.35625, 48.869375 ], [ 2.35625, 48.8748125 ], [ 2.345625, 48.8748125 ], [ 2.345625, 48.869375 ], [ 2.35625, 48.869375 ] ] ] } },
{ "type": "Feature", "properties": { "zone_id": "750911", "price_m2": 13121.0, "heat_score": 75.6, "flood_score": 11.2, "elevation": 60.4, "dist_seine": 2.5, "n_sales": 269 }, "geometry": { "type": "Polygon", "coordinates": [ [ [ 2.35625, 48.8748125 ], [ 2.35625, 48.88025 ], [ 2.345625, 48.88025 ], [ 2.345625, 48.8748125 ], [ 2.35625, 48.8748125 ] ] ] } },
{ "type": "Feature", "properties": { "zone_id": "750912", "price_m2": 11689.0, "heat_score": 75.6, "flood_score": 5.7, "elevation": 59.6, "dist_seine": 3.1, "n_sales": 152 }, "geometry": { "type": "Polygon", "coordinates": [ [ [ 2.35625, 48.88025 ], [ 2.35625, 48.8856875 ], [ 2.345625, 48.8856875 ], [ 2.345625, 48.88025 ], [ 2.35625, 48.88025 ] ] ] } },
{ "type": "Feature", "properties": { "zone_id": "750913", "price_m2": 13336.0, "heat_score": 33.4, "flood_score": 5.3, "elevation": 62.3, "dist_seine": 3.71, "n_sales": 233 }, "geometry": { "type": "Polygon", "coordinates": [ [ [ 2.35625, 48.8856875 ], [ 2.35625, 48.891125 ], [ 2.345625, 48.891125 ], [ 2.345625, 48.8856875 ], [ 2.35625, 48.8856875 ] ] ] } },
{ "type": "Feature", "properties": { "zone_id": "750914", "price_m2": 13783.0, "heat_score": 80.8, "flood_score": 2.7, "elevation": 69.1, "dist_seine": 4.31, "n_sales": 335 }, "geometry": { "type": "Polygon", "coordinates": [ [ [ 2.35625, 48.891125 ], [ 2.35625, 48.8965625 ], [ 2.345625, 48.8965625 ], [ 2.345625, 48.891125 ], [ 2.35625, 48.891125 ] ] ] } },
{ "type": "Feature", "properties": { "zone_id": "750915", "price_m2": 13378.0, "heat_score": 65.7, "flood_score": 0.4, "elevation": 71.5, "dist_seine": 4.92, "n_sales": 200 }, "geometry": { "type": "Polygon", "coordinates": [ [ [ 2.35625, 48.8965625 ], [ 2.35625, 48.902 ], [ 2.345625, 48.902 ], [ 2.345625, 48.8965625 ], [ 2.35625, 48.8965625 ] ] ] } },
{ "type": "Feature", "properties": { "zone_id": "751000", "price_m2": 10518.0, "heat_score": 80.5, "flood_score": 0.0, "elevation": 66.2, "dist_seine": 4.14, "n_sales": 150 }, "geometry": { "type": "Polygon", "coordinates": [ [ [ 2.366875, 48.815 ], [ 2.366875, 48.8204375 ], [ 2.35625, 48.8204375 ], [ 2.35625, 48.815 ], [ 2.366875, 48.815 ] ] ] } },
{ "type": "Feature", "properties": { "zone_id": "751001", "price_m2": 10845.0, "heat_score": 35.7, "flood_score": 0.9, "elevation": 62.7, "dist_seine": 3.53, "n_sales": 157 }, "geometry": { "type": "Polygon", "coordinates": [ [ [ 2.366875, 48.8204375 ], [ 2.366875, 48.825875 ], [ 2.35625, 48.825875 ], [ 2.35625, 48.8204375 ], [ 2.366875, 48.8204375 ] ] ] } },
{ "type": "Feature", "properties": { "zone_id": "751002", "price_m2": 11810.0, "heat_score": 54.9, "flood_score": 0.0, "elevation": 62.4, "dist_seine": 2.93, "n_sales": 59 }, "geometry": { "type": "Polygon", "coordinates": [ [ [ 2.366875, 48.825875 ], [ 2.366875, 48.8313125 ], [ 2.35625, 48.8313125 ], [ 2.35625, 48.825875 ], [ 2.366875, 48.825875 ] ] ] } },
{ "type": "Feature", "properties": { "zone_id": "751003", "price_m2": 12716.0, "heat_score": 52.2, "flood_score": 16.4, "elevation": 51.9, "dist_seine": 2.33, "n_sales": 331 }, "geometry": { "type": "Polygon", "coordinates": [ [ [ 2.366875, 48.8313125 ], [ 2.366875, 48.83675 ], [ 2.35625, 48.83675 ], [ 2.35625, 48.8313125 ], [ 2.366875, 48.8313125 ] ] ] } },
{ "type": "Feature", "properties": { "zone_id": "751004", "price_m2": 12653.0, "heat_score": 53.5, "flood_score": 26.6, "elevation": 41.9, "dist_seine": 1.72, "n_sales": 326 }, "geometry": { "type": "Polygon", "coordinates": [ [ [ 2.366875, 48.83675 ], [ 2.366875, 48.8421875 ], [ 2.35625, 48.8421875 ], [ 2.35625, 48.83675 ], [ 2.366875, 48.83675 ] ] ] } },
{ "type": "Feature", "properties": { "zone_id": "751005", "price_m2": 12036.0, "heat_score": 64.5, "flood_score": 35.3, "elevation": 47.8, "dist_seine": 1.12, "n_sales": 171 }, "geometry": { "type": "Polygon", "coordinates": [ [ [ 2.366875, 48.8421875 ], [ 2.366875, 48.847625 ], [ 2.35625, 48.847625 ], [ 2.35625, 48.8421875 ], [ 2.366875, 48.8421875 ] ] ] } },
{ "type": "Feature", "properties": { "zone_id": "751006", "price_m2": 13146.0, "heat_score": 68.0, "flood_score": 73.4, "elevation": 33.7, "dist_seine": 0.52, "n_sales": 313 }, "geometry": { "type": "Polygon", "coordinates": [ [ [ 2.366875, 48.847625 ], [ 2.366875, 48.8530625 ], [ 2.35625, 48.8530625 ], [ 2.35625, 48.847625 ], [ 2.366875, 48.847625 ] ] ] } },
{ "type": "Feature", "properties": { "zone_id": "751007", "price_m2": 14360.0, "heat_score": 38.8, "flood_score": 97.9, "elevation": 33.8, "dist_seine": 0.09, "n_sales": 145 }, "geometry": { "type": "Polygon", "coordinates": [ [ [ 2.366875, 48.8530625 ], [ 2.366875, 48.8585 ], [ 2.35625, 48.8585 ], [ 2.35625, 48.8530625 ], [ 2.366875, 48.8530625 ] ] ] } },
{ "type": "Feature", "properties": { "zone_id": "751008", "price_m2": 13623.0, "heat_score": 43.9, "flood_score": 56.1, "elevation": 42.9, "dist_seine": 0.69, "n_sales": 308 }, "geometry": { "type": "Polygon", "coordinates": [ [ [ 2.366875, 48.8585 ], [ 2.366875, 48.8639375 ], [ 2.35625, 48.8639375 ], [ 2.35625, 48.8585 ], [ 2.366875, 48.8585 ] ] ] } },
{ "type": "Feature", "properties": { "zone_id": "751009", "price_m2": 15167.0, "heat_score": 76.3, "flood_score": 33.4, "elevation": 50.0, "dist_seine": 1.29, "n_sales": 307 }, "geometry": { "type": "Polygon", "coordinates": [ [ [ 2.366875, 48.8639375 ], [ 2.366875, 48.869375 ], [ 2.35625, 48.869375 ], [ 2.35625, 48.8639375 ], [ 2.366875, 48.8639375 ] ] ] } },
{ "type": "Feature", "properties": { "zone_id": "751010", "price_m2": 13827.0, "heat_score": 52.8, "flood_score": 18.7, "elevation": 55.0, "dist_seine": 1.9, "n_sales": 51 }, "geometry": { "type": "Polygon", "coordinates": [ [ [ 2.366875, 48.869375 ], [ 2.366875, 48.8748125 ], [ 2.35625, 48.8748125 ], [ 2.35625, 48.869375 ], [ 2.366875, 48.869375 ] ] ] } },
{ "type": "Feature", "properties": { "zone_id": "751011", "price_m2": 11944.0, "heat_score": 87.5, "flood_score": 18.4, "elevation": 55.8, "dist_seine": 2.5, "n_sales": 30 }, "geometry": { "type": "Polygon", "coordinates": [ [ [ 2.366875, 48.8748125 ], [ 2.366875, 48.88025 ], [ 2.35625, 48.88025 ], [ 2.35625, 48.8748125 ], [ 2.366875, 48.8748125 ] ] ] } },
{ "type": "Feature", "properties": { "zone_id": "751012", "price_m2": 10859.0, "heat_score": 30.7, "flood_score": 7.4, "elevation": 58.7, "dist_seine": 3.1, "n_sales": 101 }, "geometry": { "type": "Polygon", "coordinates": [ [ [ 2.366875, 48.88025 ], [ 2.366875, 48.8856875 ], [ 2.35625, 48.8856875 ], [ 2.35625, 48.88025 ], [ 2.366875, 48.88025 ] ] ] } },
{ "type": "Feature", "properties": { "zone_id": "751013", "price_m2": 10537.0, "heat_score": 74.3, "flood_score": 8.8, "elevation": 64.8, "dist_seine": 3.71, "n_sales": 223 }, "geometry": { "type": "Polygon", "coordinates": [ [ [ 2.366875, 48.8856875 ], [ 2.366875, 48.891125 ], [ 2.35625, 48.891125 ], [ 2.35625, 48.8856875 ], [ 2.366875, 48.8856875 ] ] ] } },
{ "type": "Feature", "properties": { "zone_id": "751014", "price_m2": 9550.0, "heat_score": 30.0, "flood_score": 5.8, "elevation": 73.2, "dist_seine": 4.31, "n_sales": 68 }, "geometry": { "type": "Polygon", "coordinates": [ [ [ 2.366875, 48.891125 ], [ 2.366875, 48.8965625 ], [ 2.35625, 48.8965625 ], [ 2.35625, 48.891125 ], [ 2.366875, 48.891125 ] ] ] } },
{ "type": "Feature", "properties": { "zone_id": "751015", "price_m2": 11505.0, "heat_score": 50.5, "flood_score": 0.0, "elevation": 79.8, "dist_seine": 4.92, "n_sales": 178 }, "geometry": { "type": "Polygon", "coordinates": [ [ [ 2.366875, 48.8965625 ], [ 2.366875, 48.902 ], [ 2.35625, 48.902 ], [ 2.35625, 48.8965625 ], [ 2.366875, 48.8965625 ] ] ] } },
{ "type": "Feature", "properties": { "zone_id": "751100", "price_m2": 9364.0, "heat_score": 76.0, "flood_score": 5.1, "elevation": 68.0, "dist_seine": 4.14, "n_sales": 71 }, "geometry": { "type": "Polygon", "coordinates": [ [ [ 2.3775, 48.815 ], [ 2.3775, 48.8204375 ], [ 2.366875, 48.8204375 ], [ 2.366875, 48.815 ], [ 2.3775, 48.815 ] ] ] } },
{ "type": "Feature", "properties": { "zone_id": "751101", "price_m2": 10166.0, "heat_score": 52.3, "flood_score": 10.1, "elevation": 57.6, "dist_seine": 3.53, "n_sales": 35 }, "geometry": { "type": "Polygon", "coordinates": [ [ [ 2.3775, 48.8204375 ], [ 2.3775, 48.825875 ], [ 2.366875, 48.825875 ], [ 2.366875, 48.8204375 ], [ 2.3775, 48.8204375 ] ] ] } },
{ "type": "Feature", "properties": { "zone_id": "751102", "price_m2": 13936.0, "heat_score": 70.7, "flood_score": 13.1, "elevation": 60.4, "dist_seine": 2.93, "n_sales": 355 }, "geometry": { "type": "Polygon", "coordinates": [ [ [ 2.3775, 48.825875 ], [ 2.3775, 48.8313125 ], [ 2.366875, 48.8313125 ], [ 2.366875, 48.825875 ], [ 2.3775, 48.825875 ] ] ] } },
{ "type": "Feature", "properties": { "zone_id": "751103", "price_m2": 12152.0, "heat_score": 44.6, "flood_score": 10.4, "elevation": 60.5, "dist_seine": 2.33, "n_sales": 261 }, "geometry": { "type": "Polygon", "coordinates": [ [ [ 2.3775, 48.8313125 ], [ 2.3775, 48.83675 ], [ 2.366875, 48.83675 ], [ 2.366875, 48.8313125 ], [ 2.3775, 48.8313125 ] ] ] } },
{ "type": "Feature", "properties": { "zone_id": "751104", "price_m2": 12538.0, "heat_score": 40.4, "flood_score": 20.1, "elevation": 44.9, "dist_seine": 1.72, "n_sales": 21 }, "geometry": { "type": "Polygon", "coordinates": [ [ [ 2.3775, 48.83675 ], [ 2.3775, 48.8421875 ], [ 2.366875, 48.8421875 ], [ 2.366875, 48.83675 ], [ 2.3775, 48.83675 ] ] ] } },
{ "type": "Feature", "properties": { "zone_id": "751105", "price_m2": 13408.0, "heat_score": 60.5, "flood_score": 41.6, "elevation": 42.8, "dist_seine": 1.12, "n_sales": 337 }, "geometry": { "type": "Polygon", "coordinates": [ [ [ 2.3775, 48.8421875 ], [ 2.3775, 48.847625 ], [ 2.366875, 48.847625 ], [ 2.366875, 48.8421875 ], [ 2.3775, 48.8421875 ] ] ] } },
{ "type": "Feature", "properties": { "zone_id": "751106", "price_m2": 14067.0, "heat_score": 49.3, "flood_score": 56.3, "elevation": 43.1, "dist_seine": 0.52, "n_sales": 68 }, "geometry": { "type": "Polygon", "coordinates": [ [ [ 2.3775, 48.847625 ], [ 2.3775, 48.8530625 ], [ 2.366875, 48.8530625 ], [ 2.366875, 48.847625 ], [ 2.3775, 48.847625 ] ] ] } },
{ "type": "Feature", "properties": { "zone_id": "751107", "price_m2": 13809.0, "heat_score": 30.0, "flood_score": 85.5, "elevation": 36.8, "dist_seine": 0.09, "n_sales": 288 }, "geometry": { "type": "Polygon", "coordinates": [ [ [ 2.3775, 48.8530625 ], [ 2.3775, 48.8585 ], [ 2.366875, 48.8585 ], [ 2.366875, 48.8530625 ], [ 2.3775, 48.8530625 ] ] ] } },
{ "type": "Feature", "properties": { "zone_id": "751108", "price_m2": 13523.0, "heat_score": 66.0, "flood_score": 57.1, "elevation": 39.6, "dist_seine": 0.69, "n_sales": 126 }, "geometry": { "type": "Polygon", "coordinates": [ [ [ 2.3775, 48.8585 ], [ 2.3775, 48.8639375 ], [ 2.366875, 48.8639375 ], [ 2.366875, 48.8585 ], [ 2.3775, 48.8585 ] ] ] } },
{ "type": "Feature", "properties": { "zone_id": "751109", "price_m2": 14838.0, "heat_score": 43.0, "flood_score": 34.5, "elevation": 43.3, "dist_seine": 1.29, "n_sales": 157 }, "geometry": { "type": "Polygon", "coordinates": [ [ [ 2.3775, 48.8639375 ], [ 2.3775, 48.869375 ], [ 2.366875, 48.869375 ], [ 2.366875, 48.8639375 ], [ 2.3775, 48.8639375 ] ] ] } },
{ "type": "Feature", "properties": { "zone_id": "751110", "price_m2": 13664.0, "heat_score": 68.5, "flood_score": 17.9, "elevation": 49.6, "dist_seine": 1.9, "n_sales": 351 }, "geometry": { "type": "Polygon", "coordinates": [ [ [ 2.3775, 48.869375 ], [ 2.3775, 48.8748125 ], [ 2.366875, 48.8748125 ], [ 2.366875, 48.869375 ], [ 2.3775, 48.869375 ] ] ] } },
{ "type": "Feature", "properties": { "zone_id": "751111", "price_m2": 13014.0, "heat_score": 58.6, "flood_score": 18.4, "elevation": 57.1, "dist_seine": 2.5, "n_sales": 391 }, "geometry": { "type": "Polygon", "coordinates": [ [ [ 2.3775, 48.8748125 ], [ 2.3775, 48.88025 ], [ 2.366875, 48.88025 ], [ 2.366875, 48.8748125 ], [ 2.3775, 48.8748125 ] ] ] } },
{ "type": "Feature", "properties": { "zone_id": "751112", "price_m2": 13556.0, "heat_score": 53.8, "flood_score": 10.8, "elevation": 55.1, "dist_seine": 3.1, "n_sales": 68 }, "geometry": { "type": "Polygon", "coordinates": [ [ [ 2.3775, 48.88025 ], [ 2.3775, 48.8856875 ], [ 2.366875, 48.8856875 ], [ 2.366875, 48.88025 ], [ 2.3775, 48.88025 ] ] ] } },
{ "type": "Feature", "properties": { "zone_id": "751113", "price_m2": 11870.0, "heat_score": 37.3, "flood_score": 0.3, "elevation": 64.0, "dist_seine": 3.71, "n_sales": 152 }, "geometry": { "type": "Polygon", "coordinates": [ [ [ 2.3775, 48.8856875 ], [ 2.3775, 48.891125 ], [ 2.366875, 48.891125 ], [ 2.366875, 48.8856875 ], [ 2.3775, 48.8856875 ] ] ] } },
{ "type": "Feature", "properties": { "zone_id": "751114", "price_m2": 12285.0, "heat_score": 30.0, "flood_score": 4.7, "elevation": 72.3, "dist_seine": 4.31, "n_sales": 363 }, "geometry": { "type": "Polygon", "coordinates": [ [ [ 2.3775, 48.891125 ], [ 2.3775, 48.8965625 ], [ 2.366875, 48.8965625 ], [ 2.366875, 48.891125 ], [ 2.3775, 48.891125 ] ] ] } },
{ "type": "Feature", "properties": { "zone_id": "751115", "price_m2": 10937.0, "heat_score": 54.7, "flood_score": 0.3, "elevation": 74.1, "dist_seine": 4.92, "n_sales": 84 }, "geometry": { "type": "Polygon", "coordinates": [ [ [ 2.3775, 48.8965625 ], [ 2.3775, 48.902 ], [ 2.366875, 48.902 ], [ 2.366875, 48.8965625 ], [ 2.3775, 48.8965625 ] ] ] } },
{ "type": "Feature", "properties": { "zone_id": "751200", "price_m2": 11712.0, "heat_score": 73.0, "flood_score": 0.0, "elevation": 63.9, "dist_seine": 4.14, "n_sales": 293 }, "geometry": { "type": "Polygon", "coordinates": [ [ [ 2.388125, 48.815 ], [ 2.388125, 48.8204375 ], [ 2.3775, 48.8204375 ], [ 2.3775, 48.815 ], [ 2.388125, 48.815 ] ] ] } },
{ "type": "Feature", "properties": { "zone_id": "751201", "price_m2": 11238.0, "heat_score": 30.0, "flood_score": 6.7, "elevation": 62.3, "dist_seine": 3.53, "n_sales": 262 }, "geometry": { "type": "Polygon", "coordinates": [ [ [ 2.388125, 48.8204375 ], [ 2.388125, 48.825875 ], [ 2.3775, 48.825875 ], [ 2.3775, 48.8204375 ], [ 2.388125, 48.8204375 ] ] ] } },
{ "type": "Feature", "properties": { "zone_id": "751202", "price_m2": 12748.0, "heat_score": 64.1, "flood_score": 8.2, "elevation": 58.7, "dist_seine": 2.93, "n_sales": 185 }, "geometry": { "type": "Polygon", "coordinates": [ [ [ 2.388125, 48.825875 ], [ 2.388125, 48.8313125 ], [ 2.3775, 48.8313125 ], [ 2.3775, 48.825875 ], [ 2.388125, 48.825875 ] ] ] } },
{ "type": "Feature", "properties": { "zone_id": "751203", "price_m2": 10346.0, "heat_score": 73.8, "flood_score": 19.2, "elevation": 53.7, "dist_seine": 2.33, "n_sales": 271 }, "geometry": { "type": "Polygon", "coordinates": [ [ [ 2.388125, 48.8313125 ], [ 2.388125, 48.83675 ], [ 2.3775, 48.83675 ], [ 2.3775, 48.8313125 ], [ 2.388125, 48.8313125 ] ] ] } },
{ "type": "Feature", "properties": { "zone_id": "751204", "price_m2": 9832.0, "heat_score": 80.2, "flood_score": 17.0, "elevation": 48.8, "dist_seine": 1.72, "n_sales": 105 }, "geometry": { "type": "Polygon", "coordinates": [ [ [ 2.388125, 48.83675 ], [ 2.388125, 48.8421875 ], [ 2.3775, 48.8421875 ], [ 2.3775, 48.83675 ], [ 2.388125, 48.83675 ] ] ] } },
{ "type": "Feature", "properties": { "zone_id": "751205", "price_m2": 12526.0, "heat_score": 69.1, "flood_score": 38.5, "elevation": 44.3, "dist_seine": 1.12, "n_sales": 359 }, "geometry": { "type": "Polygon", "coordinates": [ [ [ 2.388125, 48.8421875 ], [ 2.388125, 48.847625 ], [ 2.3775, 48.847625 ], [ 2.3775, 48.8421875 ], [ 2.388125, 48.8421875 ] ] ] } },
{ "type": "Feature", "properties": { "zone_id": "751206", "price_m2": 12037.0, "heat_score": 56.2, "flood_score": 68.9, "elevation": 39.7, "dist_seine": 0.52, "n_sales": 165 }, "geometry": { "type": "Polygon", "coordinates": [ [ [ 2.388125, 48.847625 ], [ 2.388125, 48.8530625 ], [ 2.3775, 48.8530625 ], [ 2.3775, 48.847625 ], [ 2.388125, 48.847625 ] ] ] } },
{ "type": "Feature", "properties": { "zone_id": "751207", "price_m2": 13595.0, "heat_score": 65.4, "flood_score": 89.9, "elevation": 32.2, "dist_seine": 0.09, "n_sales": 68 }, "geometry": { "type": "Polygon", "coordinates": [ [ [ 2.388125, 48.8530625 ], [ 2.388125, 48.8585 ], [ 2.3775, 48.8585 ], [ 2.3775, 48.8530625 ], [ 2.388125, 48.8530625 ] ] ] } },
{ "type": "Feature", "properties": { "zone_id": "751208", "price_m2": 13766.0, "heat_score": 76.8, "flood_score": 50.3, "elevation": 39.9, "dist_seine": 0.69, "n_sales": 293 }, "geometry": { "type": "Polygon", "coordinates": [ [ [ 2.388125, 48.8585 ], [ 2.388125, 48.8639375 ], [ 2.3775, 48.8639375 ], [ 2.3775, 48.8585 ], [ 2.388125, 48.8585 ] ] ] } },
{ "type": "Feature", "properties": { "zone_id": "751209", "price_m2": 11356.0, "heat_score": 30.0, "flood_score": 33.8, "elevation": 48.0, "dist_seine": 1.29, "n_sales": 111 }, "geometry": { "type": "Polygon", "coordinates": [ [ [ 2.388125, 48.8639375 ], [ 2.388125, 48.869375 ], [ 2.3775, 48.869375 ], [ 2.3775, 48.8639375 ], [ 2.388125, 48.8639375 ] ] ] } },
{ "type": "Feature", "properties": { "zone_id": "751210", "price_m2": 11650.0, "heat_score": 67.7, "flood_score": 12.2, "elevation": 44.4, "dist_seine": 1.9, "n_sales": 199 }, "geometry": { "type": "Polygon", "coordinates": [ [ [ 2.388125, 48.869375 ], [ 2.388125, 48.8748125 ], [ 2.3775, 48.8748125 ], [ 2.3775, 48.869375 ], [ 2.388125, 48.869375 ] ] ] } },
{ "type": "Feature", "properties": { "zone_id": "751211", "price_m2": 10508.0, "heat_score": 71.1, "flood_score": 11.3, "elevation": 54.5, "dist_seine": 2.5, "n_sales": 253 }, "geometry": { "type": "Polygon", "coordinates": [ [ [ 2.388125, 48.8748125 ], [ 2.388125, 48.88025 ], [ 2.3775, 48.88025 ], [ 2.3775, 48.8748125 ], [ 2.388125, 48.8748125 ] ] ] } },
{ "type": "Feature", "properties": { "zone_id": "751212", "price_m2": 11203.0, "heat_score": 60.3, "flood_score": 10.6, "elevation": 65.9, "dist_seine": 3.1, "n_sales": 94 }, "geometry": { "type": "Polygon", "coordinates": [ [ [ 2.388125, 48.88025 ], [ 2.388125, 48.8856875 ], [ 2.3775, 48.8856875 ], [ 2.3775, 48.88025 ], [ 2.388125, 48.88025 ] ] ] } },
{ "type": "Feature", "properties": { "zone_id": "751213", "price_m2": 11610.0, "heat_score": 71.4, "flood_score": 0.0, "elevation": 65.4, "dist_seine": 3.71, "n_sales": 321 }, "geometry": { "type": "Polygon", "coordinates": [ [ [ 2.388125, 48.8856875 ], [ 2.388125, 48.891125 ], [ 2.3775, 48.891125 ], [ 2.3775, 48.8856875 ], [ 2.388125, 48.8856875 ] ] ] } },
{ "type": "Feature", "properties": { "zone_id": "751214", "price_m2": 9931.0, "heat_score": 52.8, "flood_score": 9.6, "elevation": 70.7, "dist_seine": 4.31, "n_sales": 303 }, "geometry": { "type": "Polygon", "coordinates": [ [ [ 2.388125, 48.891125 ], [ 2.388125, 48.8965625 ], [ 2.3775, 48.8965625 ], [ 2.3775, 48.891125 ], [ 2.388125, 48.891125 ] ] ] } },
{ "type": "Feature", "properties": { "zone_id": "751215", "price_m2": 11707.0, "heat_score": 57.7, "flood_score": 0.0, "elevation": 76.6, "dist_seine": 4.92, "n_sales": 42 }, "geometry": { "type": "Polygon", "coordinates": [ [ [ 2.388125, 48.8965625 ], [ 2.388125, 48.902 ], [ 2.3775, 48.902 ], [ 2.3775, 48.8965625 ], [ 2.388125, 48.8965625 ] ] ] } },
{ "type": "Feature", "properties": { "zone_id": "751300", "price_m2": 9491.0, "heat_score": 55.7, "flood_score": 2.5, "elevation": 65.3, "dist_seine": 4.14, "n_sales": 150 }, "geometry": { "type": "Polygon", "coordinates": [ [ [ 2.39875, 48.815 ], [ 2.39875, 48.8204375 ], [ 2.388125, 48.8204375 ], [ 2.388125, 48.815 ], [ 2.39875, 48.815 ] ] ] } },
{ "type": "Feature", "properties": { "zone_id": "751301", "price_m2": 10413.0, "heat_score": 47.0, "flood_score": 6.1, "elevation": 64.3, "dist_seine": 3.53, "n_sales": 386 }, "geometry": { "type": "Polygon", "coordinates": [ [ [ 2.39875, 48.8204375 ], [ 2.39875, 48.825875 ], [ 2.388125, 48.825875 ], [ 2.388125, 48.8204375 ], [ 2.39875, 48.8204375 ] ] ] } },
{ "type": "Feature", "properties": { "zone_id": "751302", "price_m2": 11858.0, "heat_score": 82.2, "flood_score": 1.4, "elevation": 59.5, "dist_seine": 2.93, "n_sales": 361 }, "geometry": { "type": "Polygon", "coordinates": [ [ [ 2.39875, 48.825875 ], [ 2.39875, 48.8313125 ], [ 2.388125, 48.8313125 ], [ 2.388125, 48.825875 ], [ 2.39875, 48.825875 ] ] ] } },
{ "type": "Feature", "properties": { "zone_id": "751303", "price_m2": 10264.0, "heat_score": 49.7, "flood_score": 17.1, "elevation": 56.4, "dist_seine": 2.33, "n_sales": 217 }, "geometry": { "type": "Polygon", "coordinates": [ [ [ 2.39875, 48.8313125 ], [ 2.39875, 48.83675 ], [ 2.388125, 48.83675 ], [ 2.388125, 48.8313125 ], [ 2.39875, 48.8313125 ] ] ] } },
{ "type": "Feature", "properties": { "zone_id": "751304", "price_m2": 11920.0, "heat_score": 78.3, "flood_score": 21.5, "elevation": 49.9, "dist_seine": 1.72, "n_sales": 267 }, "geometry": { "type": "Polygon", "coordinates": [ [ [ 2.39875, 48.83675 ], [ 2.39875, 48.8421875 ], [ 2.388125, 48.8421875 ], [ 2.388125, 48.83675 ], [ 2.39875, 48.83675 ] ] ] } },
{ "type": "Feature", "properties": { "zone_id": "751305", "price_m2": 10595.0, "heat_score": 33.4, "flood_score": 40.5, "elevation": 47.8, "dist_seine": 1.12, "n_sales": 173 }, "geometry": { "type": "Polygon", "coordinates": [ [ [ 2.39875, 48.8421875 ], [ 2.39875, 48.847625 ], [ 2.388125, 48.847625 ], [ 2.388125, 48.8421875 ], [ 2.39875, 48.8421875 ] ] ] } },
{ "type": "Feature", "properties": { "zone_id": "751306", "price_m2": 12497.0, "heat_score": 39.7, "flood_score": 63.4, "elevation": 38.0, "dist_seine": 0.52, "n_sales": 248 }, "geometry": { "type": "Polygon", "coordinates": [ [ [ 2.39875, 48.847625 ], [ 2.39875, 48.8530625 ], [ 2.388125, 48.8530625 ], [ 2.388125, 48.847625 ], [ 2.39875, 48.847625 ] ] ] } },
{ "type": "Feature", "properties": { "zone_id": "751307", "price_m2": 12892.0, "heat_score": 63.0, "flood_score": 92.8, "elevation": 30.4, "dist_seine": 0.09, "n_sales": 124 }, "geometry": { "type": "Polygon", "coordinates": [ [ [ 2.39875, 48.8530625 ], [ 2.39875, 48.8585 ], [ 2.388125, 48.8585 ], [ 2.388125, 48.8530625 ], [ 2.39875, 48.8530625 ] ] ] } },
{ "type": "Feature", "properties": { "zone_id": "751308", "price_m2": 13981.0, "heat_score": 57.8, "flood_score": 52.5, "elevation": 41.1, "dist_seine": 0.69, "n_sales": 114 }, "geometry": { "type": "Polygon", "coordinates": [ [ [ 2.39875, 48.8585 ], [ 2.39875, 48.8639375 ], [ 2.388125, 48.8639375 ], [ 2.388125, 48.8585 ], [ 2.39875, 48.8585 ] ] ] } },
{ "type": "Feature", "properties": { "zone_id": "751309", "price_m2": 12785.0, "heat_score": 34.9, "flood_score": 42.0, "elevation": 45.8, "dist_seine": 1.29, "n_sales": 342 }, "geometry": { "type": "Polygon", "coordinates": [ [ [ 2.39875, 48.8639375 ], [ 2.39875, 48.869375 ], [ 2.388125, 48.869375 ], [ 2.388125, 48.8639375 ], [ 2.39875, 48.8639375 ] ] ] } },
{ "type": "Feature", "properties": { "zone_id": "751310", "price_m2": 11113.0, "heat_score": 52.7, "flood_score": 22.0, "elevation": 49.6, "dist_seine": 1.9, "n_sales": 37 }, "geometry": { "type": "Polygon", "coordinates": [ [ [ 2.39875, 48.869375 ], [ 2.39875, 48.8748125 ], [ 2.388125, 48.8748125 ], [ 2.388125, 48.869375 ], [ 2.39875, 48.869375 ] ] ] } },
{ "type": "Feature", "properties": { "zone_id": "751311", "price_m2": 11914.0, "heat_score": 48.7, "flood_score": 0.4, "elevation": 58.5, "dist_seine": 2.5, "n_sales": 331 }, "geometry": { "type": "Polygon", "coordinates": [ [ [ 2.39875, 48.8748125 ], [ 2.39875, 48.88025 ], [ 2.388125, 48.88025 ], [ 2.388125, 48.8748125 ], [ 2.39875, 48.8748125 ] ] ] } },
{ "type": "Feature", "properties": { "zone_id": "751312", "price_m2": 10302.0, "heat_score": 71.4, "flood_score": 4.1, "elevation": 59.1, "dist_seine": 3.1, "n_sales": 148 }, "geometry": { "type": "Polygon", "coordinates": [ [ [ 2.39875, 48.88025 ], [ 2.39875, 48.8856875 ], [ 2.388125, 48.8856875 ], [ 2.388125, 48.88025 ], [ 2.39875, 48.88025 ] ] ] } },
{ "type": "Feature", "properties": { "zone_id": "751313", "price_m2": 12968.0, "heat_score": 68.6, "flood_score": 0.0, "elevation": 64.4, "dist_seine": 3.71, "n_sales": 322 }, "geometry": { "type": "Polygon", "coordinates": [ [ [ 2.39875, 48.8856875 ], [ 2.39875, 48.891125 ], [ 2.388125, 48.891125 ], [ 2.388125, 48.8856875 ], [ 2.39875, 48.8856875 ] ] ] } },
{ "type": "Feature", "properties": { "zone_id": "751314", "price_m2": 10907.0, "heat_score": 70.0, "flood_score": 8.7, "elevation": 67.4, "dist_seine": 4.31, "n_sales": 251 }, "geometry": { "type": "Polygon", "coordinates": [ [ [ 2.39875, 48.891125 ], [ 2.39875, 48.8965625 ], [ 2.388125, 48.8965625 ], [ 2.388125, 48.891125 ], [ 2.39875, 48.891125 ] ] ] } },
{ "type": "Feature", "properties": { "zone_id": "751315", "price_m2": 9972.0, "heat_score": 30.0, "flood_score": 2.3, "elevation": 75.4, "dist_seine": 4.92, "n_sales": 392 }, "geometry": { "type": "Polygon", "coordinates": [ [ [ 2.39875, 48.8965625 ], [ 2.39875, 48.902 ], [ 2.388125, 48.902 ], [ 2.388125, 48.8965625 ], [ 2.39875, 48.8965625 ] ] ] } },
{ "type": "Feature", "properties": { "zone_id": "751400", "price_m2": 10285.0, "heat_score": 77.7, "flood_score": 1.8, "elevation": 66.2, "dist_seine": 4.14, "n_sales": 330 }, "geometry": { "type": "Polygon", "coordinates": [ [ [ 2.409375, 48.815 ], [ 2.409375, 48.8204375 ], [ 2.39875, 48.8204375 ], [ 2.39875, 48.815 ], [ 2.409375, 48.815 ] ] ] } },
{ "type": "Feature", "properties": { "zone_id": "751401", "price_m2": 8827.0, "heat_score": 54.7, "flood_score": 6.5, "elevation": 62.8, "dist_seine": 3.53, "n_sales": 348 }, "geometry": { "type": "Polygon", "coordinates": [ [ [ 2.409375, 48.8204375 ], [ 2.409375, 48.825875 ], [ 2.39875, 48.825875 ], [ 2.39875, 48.8204375 ], [ 2.409375, 48.8204375 ] ] ] } },
{ "type": "Feature", "properties": { "zone_id": "751402", "price_m2": 10617.0, "heat_score": 74.6, "flood_score": 6.0, "elevation": 53.2, "dist_seine": 2.93, "n_sales": 149 }, "geometry": { "type": "Polygon", "coordinates": [ [ [ 2.409375, 48.825875 ], [ 2.409375, 48.8313125 ], [ 2.39875, 48.8313125 ], [ 2.39875, 48.825875 ], [ 2.409375, 48.825875 ] ] ] } },
{ "type": "Feature", "properties": { "zone_id": "751403", "price_m2": 11030.0, "heat_score": 59.0, "flood_score": 11.9, "elevation": 52.3, "dist_seine": 2.33, "n_sales": 384 }, "geometry": { "type": "Polygon", "coordinates": [ [ [ 2.409375, 48.8313125 ], [ 2.409375, 48.83675 ], [ 2.39875, 48.83675 ], [ 2.39875, 48.8313125 ], [ 2.409375, 48.8313125 ] ] ] } },
{ "type": "Feature", "properties": { "zone_id": "751404", "price_m2": 10247.0, "heat_score": 30.0, "flood_score": 28.9, "elevation": 48.5, "dist_seine": 1.72, "n_sales": 84 }, "geometry": { "type": "Polygon", "coordinates": [ [ [ 2.409375, 48.83675 ], [ 2.409375, 48.8421875 ], [ 2.39875, 48.8421875 ], [ 2.39875, 48.83675 ], [ 2.409375, 48.83675 ] ] ] } },
{ "type": "Feature", "properties": { "zone_id": "751405", "price_m2": 10924.0, "heat_score": 50.7, "flood_score": 36.4, "elevation": 39.8, "dist_seine": 1.12, "n_sales": 363 }, "geometry": { "type": "Polygon", "coordinates": [ [ [ 2.409375, 48.8421875 ], [ 2.409375, 48.847625 ], [ 2.39875, 48.847625 ], [ 2.39875, 48.8421875 ], [ 2.409375, 48.8421875 ] ] ] } },
{ "type": "Feature", "properties": { "zone_id": "751406", "price_m2": 11917.0, "heat_score": 30.0, "flood_score": 74.6, "elevation": 39.4, "dist_seine": 0.52, "n_sales": 175 }, "geometry": { "type": "Polygon", "coordinates": [ [ [ 2.409375, 48.847625 ], [ 2.409375, 48.8530625 ], [ 2.39875, 48.8530625 ], [ 2.39875, 48.847625 ], [ 2.409375, 48.847625 ] ] ] } },
{ "type": "Feature", "properties": { "zone_id": "751407", "price_m2": 12075.0, "heat_score": 56.3, "flood_score": 92.9, "elevation": 31.6, "dist_seine": 0.09, "n_sales": 355 }, "geometry": { "type": "Polygon", "coordinates": [ [ [ 2.409375, 48.8530625 ], [ 2.409375, 48.8585 ], [ 2.39875, 48.8585 ], [ 2.39875, 48.8530625 ], [ 2.409375, 48.8530625 ] ] ] } },
{ "type": "Feature", "properties": { "zone_id": "751408", "price_m2": 13212.0, "heat_score": 70.1, "flood_score": 52.2, "elevation": 36.6, "dist_seine": 0.69, "n_sales": 265 }, "geometry": { "type": "Polygon", "coordinates": [ [ [ 2.409375, 48.8585 ], [ 2.409375, 48.8639375 ], [ 2.39875, 48.8639375 ], [ 2.39875, 48.8585 ], [ 2.409375, 48.8585 ] ] ] } },
{ "type": "Feature", "properties": { "zone_id": "751409", "price_m2": 11855.0, "heat_score": 62.9, "flood_score": 31.1, "elevation": 43.5, "dist_seine": 1.29, "n_sales": 345 }, "geometry": { "type": "Polygon", "coordinates": [ [ [ 2.409375, 48.8639375 ], [ 2.409375, 48.869375 ], [ 2.39875, 48.869375 ], [ 2.39875, 48.8639375 ], [ 2.409375, 48.8639375 ] ] ] } },
{ "type": "Feature", "properties": { "zone_id": "751410", "price_m2": 12147.0, "heat_score": 59.4, "flood_score": 17.7, "elevation": 47.1, "dist_seine": 1.9, "n_sales": 144 }, "geometry": { "type": "Polygon", "coordinates": [ [ [ 2.409375, 48.869375 ], [ 2.409375, 48.8748125 ], [ 2.39875, 48.8748125 ], [ 2.39875, 48.869375 ], [ 2.409375, 48.869375 ] ] ] } },
{ "type": "Feature", "properties": { "zone_id": "751411", "price_m2": 12479.0, "heat_score": 57.1, "flood_score": 8.6, "elevation": 51.4, "dist_seine": 2.5, "n_sales": 283 }, "geometry": { "type": "Polygon", "coordinates": [ [ [ 2.409375, 48.8748125 ], [ 2.409375, 48.88025 ], [ 2.39875, 48.88025 ], [ 2.39875, 48.8748125 ], [ 2.409375, 48.8748125 ] ] ] } },
{ "type": "Feature", "properties": { "zone_id": "751412", "price_m2": 10193.0, "heat_score": 30.0, "flood_score": 2.9, "elevation": 60.1, "dist_seine": 3.1, "n_sales": 225 }, "geometry": { "type": "Polygon", "coordinates": [ [ [ 2.409375, 48.88025 ], [ 2.409375, 48.8856875 ], [ 2.39875, 48.8856875 ], [ 2.39875, 48.88025 ], [ 2.409375, 48.88025 ] ] ] } },
{ "type": "Feature", "properties": { "zone_id": "751413", "price_m2": 11724.0, "heat_score": 56.3, "flood_score": 10.1, "elevation": 69.1, "dist_seine": 3.71, "n_sales": 209 }, "geometry": { "type": "Polygon", "coordinates": [ [ [ 2.409375, 48.8856875 ], [ 2.409375, 48.891125 ], [ 2.39875, 48.891125 ], [ 2.39875, 48.8856875 ], [ 2.409375, 48.8856875 ] ] ] } },
{ "type": "Feature", "properties": { "zone_id": "751414", "price_m2": 11547.0, "heat_score": 59.6, "flood_score": 3.2, "elevation": 70.4, "dist_seine": 4.31, "n_sales": 74 }, "geometry": { "type": "Polygon", "coordinates": [ [ [ 2.409375, 48.891125 ], [ 2.409375, 48.8965625 ], [ 2.39875, 48.8965625 ], [ 2.39875, 48.891125 ], [ 2.409375, 48.891125 ] ] ] } },
{ "type": "Feature", "properties": { "zone_id": "751415", "price_m2": 10138.0, "heat_score": 30.0, "flood_score": 1.6, "elevation": 73.3, "dist_seine": 4.92, "n_sales": 56 }, "geometry": { "type": "Polygon", "coordinates": [ [ [ 2.409375, 48.8965625 ], [ 2.409375, 48.902 ], [ 2.39875, 48.902 ], [ 2.39875, 48.8965625 ], [ 2.409375, 48.8965625 ] ] ] } },
{ "type": "Feature", "properties": { "zone_id": "751500", "price_m2": 9437.0, "heat_score": 69.8, "flood_score": 0.4, "elevation": 66.9, "dist_seine": 4.14, "n_sales": 78 }, "geometry": { "type": "Polygon", "coordinates": [ [ [ 2.42, 48.815 ], [ 2.42, 48.8204375 ], [ 2.409375, 48.8204375 ], [ 2.409375, 48.815 ], [ 2.42, 48.815 ] ] ] } },
{ "type": "Feature", "properties": { "zone_id": "751501", "price_m2": 9870.0, "heat_score": 30.0, "flood_score": 7.6, "elevation": 63.3, "dist_seine": 3.53, "n_sales": 107 }, "geometry": { "type": "Polygon", "coordinates": [ [ [ 2.42, 48.8204375 ], [ 2.42, 48.825875 ], [ 2.409375, 48.825875 ], [ 2.409375, 48.8204375 ], [ 2.42, 48.8204375 ] ] ] } },
{ "type": "Feature", "properties": { "zone_id": "751502", "price_m2": 10771.0, "heat_score": 53.6, "flood_score": 6.4, "elevation": 52.1, "dist_seine": 2.93, "n_sales": 142 }, "geometry": { "type": "Polygon", "coordinates": [ [ [ 2.42, 48.825875 ], [ 2.42, 48.8313125 ], [ 2.409375, 48.8313125 ], [ 2.409375, 48.825875 ], [ 2.42, 48.825875 ] ] ] } },
{ "type": "Feature", "properties": { "zone_id": "751503", "price_m2": 10238.0, "heat_score": 77.9, "flood_score": 17.6, "elevation": 51.0, "dist_seine": 2.33, "n_sales": 97 }, "geometry": { "type": "Polygon", "coordinates": [ [ [ 2.42, 48.8313125 ], [ 2.42, 48.83675 ], [ 2.409375, 48.83675 ], [ 2.409375, 48.8313125 ], [ 2.42, 48.8313125 ] ] ] } },
{ "type": "Feature", "properties": { "zone_id": "751504", "price_m2": 11002.0, "heat_score": 62.2, "flood_score": 27.5, "elevation": 49.1, "dist_seine": 1.72, "n_sales": 176 }, "geometry": { "type": "Polygon", "coordinates": [ [ [ 2.42, 48.83675 ], [ 2.42, 48.8421875 ], [ 2.409375, 48.8421875 ], [ 2.409375, 48.83675 ], [ 2.42, 48.83675 ] ] ] } },
{ "type": "Feature", "properties": { "zone_id": "751505", "price_m2": 9987.0, "heat_score": 73.0, "flood_score": 46.7, "elevation": 39.5, "dist_seine": 1.12, "n_sales": 175 }, "geometry": { "type": "Polygon", "coordinates": [ [ [ 2.42, 48.8421875 ], [ 2.42, 48.847625 ], [ 2.409375, 48.847625 ], [ 2.409375, 48.8421875 ], [ 2.42, 48.8421875 ] ] ] } },
{ "type": "Feature", "properties": { "zone_id": "751506", "price_m2": 11737.0, "heat_score": 53.5, "flood_score": 54.8, "elevation": 37.2, "dist_seine": 0.52, "n_sales": 358 }, "geometry": { "type": "Polygon", "coordinates": [ [ [ 2.42, 48.847625 ], [ 2.42, 48.8530625 ], [ 2.409375, 48.8530625 ], [ 2.409375, 48.847625 ], [ 2.42, 48.847625 ] ] ] } },
{ "type": "Feature", "properties": { "zone_id": "751507", "price_m2": 10634.0, "heat_score": 48.7, "flood_score": 96.4, "elevation": 36.9, "dist_seine": 0.09, "n_sales": 124 }, "geometry": { "type": "Polygon", "coordinates": [ [ [ 2.42, 48.8530625 ], [ 2.42, 48.8585 ], [ 2.409375, 48.8585 ], [ 2.409375, 48.8530625 ], [ 2.42, 48.8530625 ] ] ] } },
{ "type": "Feature", "properties": { "zone_id": "751508", "price_m2": 12066.0, "heat_score": 80.6, "flood_score": 59.5, "elevation": 41.0, "dist_seine": 0.69, "n_sales": 245 }, "geometry": { "type": "Polygon", "coordinates": [ [ [ 2.42, 48.8585 ], [ 2.42, 48.8639375 ], [ 2.409375, 48.8639375 ], [ 2.409375, 48.8585 ], [ 2.42, 48.8585 ] ] ] } },
{ "type": "Feature", "properties": { "zone_id": "751509", "price_m2": 11134.0, "heat_score": 47.5, "flood_score": 32.2, "elevation": 41.8, "dist_seine": 1.29, "n_sales": 363 }, "geometry": { "type": "Polygon", "coordinates": [ [ [ 2.42, 48.8639375 ], [ 2.42, 48.869375 ], [ 2.409375, 48.869375 ], [ 2.409375, 48.8639375 ], [ 2.42, 48.8639375 ] ] ] } },
{ "type": "Feature", "properties": { "zone_id": "751510", "price_m2": 13009.0, "heat_score": 61.8, "flood_score": 11.4, "elevation": 52.4, "dist_seine": 1.9, "n_sales": 203 }, "geometry": { "type": "Polygon", "coordinates": [ [ [ 2.42, 48.869375 ], [ 2.42, 48.8748125 ], [ 2.409375, 48.8748125 ], [ 2.409375, 48.869375 ], [ 2.42, 48.869375 ] ] ] } },
{ "type": "Feature", "properties": { "zone_id": "751511", "price_m2": 11855.0, "heat_score": 81.4, "flood_score": 12.9, "elevation": 50.3, "dist_seine": 2.5, "n_sales": 290 }, "geometry": { "type": "Polygon", "coordinates": [ [ [ 2.42, 48.8748125 ], [ 2.42, 48.88025 ], [ 2.409375, 48.88025 ], [ 2.409375, 48.8748125 ], [ 2.42, 48.8748125 ] ] ] } },
{ "type": "Feature", "properties": { "zone_id": "751512", "price_m2": 9608.0, "heat_score": 41.4, "flood_score": 12.6, "elevation": 58.1, "dist_seine": 3.1, "n_sales": 81 }, "geometry": { "type": "Polygon", "coordinates": [ [ [ 2.42, 48.88025 ], [ 2.42, 48.8856875 ], [ 2.409375, 48.8856875 ], [ 2.409375, 48.88025 ], [ 2.42, 48.88025 ] ] ] } },
{ "type": "Feature", "properties": { "zone_id": "751513", "price_m2": 11199.0, "heat_score": 80.7, "flood_score": 2.3, "elevation": 64.3, "dist_seine": 3.71, "n_sales": 177 }, "geometry": { "type": "Polygon", "coordinates": [ [ [ 2.42, 48.8856875 ], [ 2.42, 48.891125 ], [ 2.409375, 48.891125 ], [ 2.409375, 48.8856875 ], [ 2.42, 48.8856875 ] ] ] } },
{ "type": "Feature", "properties": { "zone_id": "751514", "price_m2": 10738.0, "heat_score": 52.4, "flood_score": 0.0, "elevation": 67.2, "dist_seine": 4.31, "n_sales": 319 }, "geometry": { "type": "Polygon", "coordinates": [ [ [ 2.42, 48.891125 ], [ 2.42, 48.8965625 ], [ 2.409375, 48.8965625 ], [ 2.409375, 48.891125 ], [ 2.42, 48.891125 ] ] ] } },
{ "type": "Feature", "properties": { "zone_id": "751515", "price_m2": 8597.0, "heat_score": 31.2, "flood_score": 0.0, "elevation": 73.4, "dist_seine": 4.92, "n_sales": 49 }, "geometry": { "type": "Polygon", "coordinates": [ [ [ 2.42, 48.8965625 ], [ 2.42, 48.902 ], [ 2.409375, 48.902 ], [ 2.409375, 48.8965625 ], [ 2.42, 48.8965625 ] ] ] } }
]
}
